{
"type": "FeatureCollection",
"name": "vanessa_cardui_range",
"crs": { "type": "name", "properties": { "name": "urn:ogc:def:crs:OGC:1.3:CRS84" } },
"features": [
{ "type": "Feature", "properties": { "layer": "observed_range" }, "geometry": { "type": "MultiPolygon", "coordinates": [ [ [ [ -93.2, 16.7 ], [ -93.1, 16.8 ], [ -93.1, 16.7 ], [ -93.2, 16.7 ] ] ], [ [ [ -155.1, 20.0 ], [ -155.0, 19.6 ], [ -154.8, 19.6 ], [ -154.9, 19.3 ], [ -155.3, 19.3 ], [ -155.6, 18.9 ], [ -155.9, 19.0 ], [ -155.9, 19.4 ], [ -156.1, 19.7 ], [ -155.9, 19.9 ], [ -155.9, 20.3 ], [ -155.1, 20.0 ] ] ], [ [ [ -156.7, 20.6 ], [ -156.5, 20.5 ], [ -156.7, 20.5 ], [ -156.7, 20.6 ] ] ], [ [ [ -156.2, 21.0 ], [ -156.0, 20.6 ], [ -156.4, 20.5 ], [ -156.5, 20.8 ], [ -156.7, 20.8 ], [ -156.7, 21.0 ], [ -156.5, 20.9 ], [ -156.2, 21.0 ] ] ], [ [ [ -156.9, 20.9 ], [ -156.8, 20.8 ], [ -157.0, 20.7 ], [ -157.0, 21.1 ], [ -157.3, 21.1 ], [ -157.3, 21.3 ], [ -156.7, 21.2 ], [ -156.9, 20.9 ] ] ], [ [ [ -106.5, 21.4 ], [ -106.3, 21.5 ], [ -106.3, 21.4 ], [ -106.5, 21.4 ] ] ], [ [ [ -158.2, 21.3 ], [ -158.3, 21.6 ], [ -157.9, 21.7 ], [ -157.7, 21.3 ], [ -158.2, 21.3 ] ] ], [ [ [ -106.6, 21.8 ], [ -106.5, 21.7 ], [ -106.5, 21.5 ], [ -106.7, 21.6 ], [ -106.6, 21.8 ] ] ], [ [ [ -158.1, 21.9 ], [ -158.0, 21.8 ], [ -158.1, 21.8 ], [ -158.1, 21.9 ] ] ], [ [ [ -160.2, 22.0 ], [ -160.0, 21.9 ], [ -160.3, 21.8 ], [ -160.2, 21.9 ], [ -160.2, 22.0 ] ] ], [ [ [ -159.4, 21.8 ], [ -159.8, 22.2 ], [ -159.3, 22.3 ], [ -159.4, 21.8 ] ] ], [ [ [ -99.2, 23.5 ], [ -99.4, 23.5 ], [ -99.3, 23.7 ], [ -99.2, 23.7 ], [ -99.2, 23.5 ] ] ], [ [ [ -110.0, 24.3 ], [ -109.9, 24.4 ], [ -109.9, 24.3 ], [ -110.0, 24.3 ] ] ], [ [ [ -110.4, 24.4 ], [ -110.3, 24.6 ], [ -110.3, 24.4 ], [ -110.4, 24.4 ] ] ], [ [ [ -112.1, 24.5 ], [ -112.0, 24.6 ], [ -112.0, 24.5 ], [ -112.1, 24.5 ] ] ], [ [ [ -111.0, 26.0 ], [ -111.1, 25.9 ], [ -111.2, 25.9 ], [ -111.2, 26.1 ], [ -111.0, 26.0 ] ] ], [ [ [ -97.4, 26.9 ], [ -97.3, 26.7 ], [ -97.4, 26.7 ], [ -97.4, 26.9 ] ] ], [ [ [ -115.2, 27.9 ], [ -115.0, 27.8 ], [ -115.2, 27.8 ], [ -115.2, 27.9 ] ] ], [ [ [ -115.1, 28.2 ], [ -115.3, 28.0 ], [ -115.3, 28.2 ], [ -115.1, 28.2 ] ] ], [ [ [ -112.9, 28.6 ], [ -112.8, 28.7 ], [ -112.8, 28.6 ], [ -112.9, 28.6 ] ] ], [ [ [ -118.4, 29.2 ], [ -118.2, 29.1 ], [ -118.2, 28.9 ], [ -118.4, 29.0 ], [ -118.4, 29.2 ] ] ], [ [ [ -113.2, 29.3 ], [ -113.1, 29.0 ], [ -113.5, 29.2 ], [ -113.6, 29.6 ], [ -113.2, 29.3 ] ] ], [ [ [ -88.9, 29.8 ], [ -88.8, 29.9 ], [ -88.8, 29.8 ], [ -88.9, 29.8 ] ] ], [ [ [ -118.5, 32.8 ], [ -118.3, 32.9 ], [ -118.3, 32.8 ], [ -118.5, 32.8 ] ] ], [ [ [ -118.6, 32.9 ], [ -118.5, 33.0 ], [ -118.5, 32.9 ], [ -118.6, 32.9 ] ] ], [ [ [ -119.6, 33.3 ], [ -119.4, 33.2 ], [ -119.6, 33.2 ], [ -119.6, 33.3 ] ] ], [ [ [ -118.4, 33.5 ], [ -118.4, 33.4 ], [ -118.3, 33.3 ], [ -118.6, 33.4 ], [ -118.4, 33.5 ] ] ], [ [ [ -120.2, 34.0 ], [ -120.0, 33.9 ], [ -120.2, 33.9 ], [ -120.2, 34.0 ] ] ], [ [ [ -119.7, 34.0 ], [ -120.0, 34.1 ], [ -119.7, 34.1 ], [ -119.7, 34.0 ] ] ], [ [ [ -119.6, 34.0 ], [ -119.5, 34.1 ], [ -119.5, 34.0 ], [ -119.6, 34.0 ] ] ], [ [ [ -120.5, 34.1 ], [ -120.3, 34.0 ], [ -120.5, 34.0 ], [ -120.5, 34.1 ] ] ], [ [ [ -126.0, 49.1 ], [ -126.1, 49.3 ], [ -126.6, 49.4 ], [ -126.6, 49.6 ], [ -126.9, 49.6 ], [ -127.0, 50.7 ], [ -126.4, 50.8 ], [ -125.4, 51.3 ], [ -125.3, 51.9 ], [ -124.9, 52.4 ], [ -124.7, 52.5 ], [ -124.0, 52.4 ], [ -123.7, 52.1 ], [ -123.5, 51.4 ], [ -123.2, 51.4 ], [ -122.9, 52.0 ], [ -122.5, 52.4 ], [ -122.0, 52.6 ], [ -121.1, 52.6 ], [ -120.3, 52.2 ], [ -119.1, 52.4 ], [ -118.8, 52.1 ], [ -118.2, 51.9 ], [ -118.1, 52.4 ], [ -118.3, 52.7 ], [ -118.3, 53.5 ], [ -117.8, 54.0 ], [ -116.9, 53.9 ], [ -116.5, 53.4 ], [ -116.4, 52.8 ], [ -116.1, 52.5 ], [ -115.5, 52.5 ], [ -115.3, 52.7 ], [ -115.1, 54.2 ], [ -114.7, 54.8 ], [ -114.8, 55.3 ], [ -114.6, 55.3 ], [ -114.5, 55.0 ], [ -113.0, 55.0 ], [ -111.7, 54.4 ], [ -111.3, 53.9 ], [ -111.2, 53.2 ], [ -110.8, 52.5 ], [ -110.8, 52.1 ], [ -110.4, 51.8 ], [ -109.4, 51.8 ], [ -109.1, 51.5 ], [ -108.8, 51.5 ], [ -108.6, 51.9 ], [ -109.5, 51.9 ], [ -109.8, 52.4 ], [ -109.7, 53.1 ], [ -109.3, 53.7 ], [ -108.1, 53.8 ], [ -107.5, 53.5 ], [ -107.1, 53.5 ], [ -106.8, 53.7 ], [ -106.8, 54.0 ], [ -106.5, 54.5 ], [ -105.6, 54.6 ], [ -105.2, 54.2 ], [ -105.0, 53.7 ], [ -104.9, 52.1 ], [ -103.6, 51.6 ], [ -103.4, 51.3 ], [ -103.0, 51.1 ], [ -102.1, 51.1 ], [ -101.9, 50.9 ], [ -101.5, 50.9 ], [ -101.3, 51.7 ], [ -100.9, 52.0 ], [ -99.7, 51.8 ], [ -99.1, 51.5 ], [ -99.0, 51.3 ], [ -98.5, 51.3 ], [ -98.4, 51.5 ], [ -97.4, 52.0 ], [ -97.2, 52.6 ], [ -97.2, 53.5 ], [ -96.8, 53.6 ], [ -96.6, 52.5 ], [ -94.9, 50.8 ], [ -94.6, 50.9 ], [ -94.5, 51.4 ], [ -94.3, 51.6 ], [ -93.5, 51.7 ], [ -93.1, 51.4 ], [ -92.8, 50.5 ], [ -91.6, 50.4 ], [ -91.2, 49.7 ], [ -90.9, 49.6 ], [ -90.8, 49.4 ], [ -90.4, 49.4 ], [ -89.7, 49.8 ], [ -89.4, 50.1 ], [ -89.4, 50.5 ], [ -89.1, 50.5 ], [ -89.0, 50.1 ], [ -88.8, 50.0 ], [ -87.9, 50.0 ], [ -87.3, 50.3 ], [ -86.6, 50.3 ], [ -85.6, 49.3 ], [ -85.4, 48.9 ], [ -84.4, 48.9 ], [ -83.9, 48.6 ], [ -83.9, 48.4 ], [ -83.4, 47.9 ], [ -82.4, 47.8 ], [ -82.4, 50.1 ], [ -81.8, 50.7 ], [ -81.0, 50.7 ], [ -81.0, 50.5 ], [ -80.7, 50.2 ], [ -79.8, 50.2 ], [ -79.4, 49.8 ], [ -79.4, 49.5 ], [ -79.2, 49.3 ], [ -78.3, 49.0 ], [ -77.7, 49.0 ], [ -77.4, 48.8 ], [ -77.3, 48.1 ], [ -77.5, 47.8 ], [ -77.9, 47.7 ], [ -78.2, 47.4 ], [ -78.2, 47.0 ], [ -77.9, 46.8 ], [ -77.2, 46.8 ], [ -76.0, 47.1 ], [ -74.8, 47.1 ], [ -74.3, 47.4 ], [ -72.7, 47.8 ], [ -72.6, 49.0 ], [ -71.9, 49.5 ], [ -70.8, 49.5 ], [ -70.0, 49.1 ], [ -69.3, 49.6 ], [ -68.1, 49.7 ], [ -67.6, 49.3 ], [ -68.1, 49.3 ], [ -68.3, 49.0 ], [ -69.0, 48.8 ], [ -69.1, 48.5 ], [ -69.3, 48.5 ], [ -69.6, 48.1 ], [ -69.3, 48.0 ], [ -69.3, 48.2 ], [ -67.6, 48.9 ], [ -67.4, 48.9 ], [ -67.4, 48.2 ], [ -68.0, 47.6 ], [ -69.1, 47.4 ], [ -69.4, 46.8 ], [ -69.3, 46.4 ], [ -68.4, 46.3 ], [ -67.6, 46.7 ], [ -67.2, 47.1 ], [ -66.4, 47.4 ], [ -66.0, 47.9 ], [ -65.4, 47.7 ], [ -64.7, 47.8 ], [ -64.5, 48.0 ], [ -64.6, 47.7 ], [ -64.8, 47.7 ], [ -65.0, 47.1 ], [ -64.8, 47.1 ], [ -64.9, 46.8 ], [ -64.5, 46.3 ], [ -63.8, 46.2 ], [ -63.8, 45.9 ], [ -62.6, 45.7 ], [ -61.9, 45.9 ], [ -61.9, 45.7 ], [ -61.5, 45.7 ], [ -61.6, 46.1 ], [ -60.7, 47.0 ], [ -60.3, 46.9 ], [ -60.3, 46.6 ], [ -60.5, 46.4 ], [ -59.9, 46.3 ], [ -59.8, 45.9 ], [ -60.1, 45.9 ], [ -60.2, 45.7 ], [ -60.7, 45.5 ], [ -61.3, 45.5 ], [ -60.9, 45.4 ], [ -61.0, 45.2 ], [ -61.8, 45.1 ], [ -62.3, 44.8 ], [ -63.3, 44.7 ], [ -63.5, 44.6 ], [ -63.5, 44.4 ], [ -64.0, 44.5 ], [ -64.1, 44.3 ], [ -64.5, 44.2 ], [ -64.5, 44.0 ], [ -65.6, 43.4 ], [ -65.8, 43.5 ], [ -65.8, 43.7 ], [ -66.1, 43.6 ], [ -66.2, 43.8 ], [ -66.2, 44.3 ], [ -66.1, 44.3 ], [ -66.0, 44.4 ], [ -66.0, 44.6 ], [ -64.6, 45.3 ], [ -64.3, 45.3 ], [ -64.2, 45.1 ], [ -64.0, 45.4 ], [ -65.0, 45.3 ], [ -65.0, 45.5 ], [ -65.3, 45.5 ], [ -66.4, 45.0 ], [ -66.9, 45.0 ], [ -66.9, 44.8 ], [ -67.3, 44.5 ], [ -67.5, 44.6 ], [ -67.5, 44.4 ], [ -67.6, 44.5 ], [ -67.8, 44.5 ], [ -67.8, 44.3 ], [ -68.2, 44.4 ], [ -68.2, 44.1 ], [ -68.3, 44.1 ], [ -68.3, 44.2 ], [ -68.4, 44.2 ], [ -68.4, 44.3 ], [ -68.5, 44.3 ], [ -68.6, 44.0 ], [ -68.8, 44.2 ], [ -68.8, 44.0 ], [ -69.0, 44.1 ], [ -69.2, 43.9 ], [ -70.2, 43.7 ], [ -70.2, 43.5 ], [ -70.8, 43.0 ], [ -70.8, 42.7 ], [ -70.5, 42.6 ], [ -70.9, 42.5 ], [ -70.9, 42.3 ], [ -70.7, 42.3 ], [ -70.5, 41.8 ], [ -69.9, 41.9 ], [ -69.9, 41.6 ], [ -70.0, 41.7 ], [ -70.5, 41.6 ], [ -70.4, 41.3 ], [ -70.9, 41.3 ], [ -71.0, 41.5 ], [ -71.3, 41.5 ], [ -71.5, 41.4 ], [ -71.5, 41.1 ], [ -71.6, 41.3 ], [ -72.6, 41.2 ], [ -73.0, 41.3 ], [ -73.1, 41.1 ], [ -73.3, 41.1 ], [ -73.2, 40.9 ], [ -72.5, 41.0 ], [ -72.4, 41.2 ], [ -72.2, 41.2 ], [ -72.1, 40.9 ], [ -72.8, 40.8 ], [ -73.0, 40.6 ], [ -74.0, 40.5 ], [ -74.1, 39.6 ], [ -74.4, 39.3 ], [ -74.6, 39.3 ], [ -74.8, 38.9 ], [ -75.0, 38.9 ], [ -74.9, 39.2 ], [ -75.4, 39.3 ], [ -75.4, 39.0 ], [ -75.0, 38.8 ], [ -75.0, 38.3 ], [ -75.3, 38.2 ], [ -75.2, 38.0 ], [ -75.3, 37.8 ], [ -75.6, 37.7 ], [ -75.8, 37.1 ], [ -76.0, 37.1 ], [ -76.0, 37.6 ], [ -75.8, 37.9 ], [ -76.3, 38.3 ], [ -76.2, 38.7 ], [ -76.4, 38.7 ], [ -76.5, 39.0 ], [ -76.5, 38.5 ], [ -76.2, 37.9 ], [ -76.4, 37.2 ], [ -76.3, 37.0 ], [ -76.0, 37.0 ], [ -75.8, 36.6 ], [ -75.9, 36.3 ], [ -75.5, 35.8 ], [ -75.7, 35.8 ], [ -75.7, 35.6 ], [ -75.9, 35.6 ], [ -76.1, 35.3 ], [ -76.6, 35.4 ], [ -76.5, 35.1 ], [ -76.2, 35.0 ], [ -76.5, 34.6 ], [ -77.0, 34.7 ], [ -77.5, 34.5 ], [ -77.6, 34.3 ], [ -77.8, 34.3 ], [ -77.9, 33.9 ], [ -78.8, 33.8 ], [ -79.3, 33.0 ], [ -79.7, 32.9 ], [ -80.1, 32.5 ], [ -80.5, 32.5 ], [ -80.4, 32.3 ], [ -80.7, 32.3 ], [ -80.7, 32.1 ], [ -80.9, 32.1 ], [ -81.4, 31.1 ], [ -81.3, 29.8 ], [ -81.0, 29.4 ], [ -81.0, 29.1 ], [ -80.5, 28.6 ], [ -80.6, 28.2 ], [ -80.0, 27.0 ], [ -80.1, 25.7 ], [ -80.3, 25.7 ], [ -80.2, 25.3 ], [ -80.5, 24.9 ], [ -80.7, 24.9 ], [ -80.8, 25.0 ], [ -80.8, 25.2 ], [ -80.9, 25.0 ], [ -81.2, 25.1 ], [ -81.3, 25.7 ], [ -81.8, 25.9 ], [ -81.9, 26.4 ], [ -82.3, 26.5 ], [ -82.3, 26.7 ], [ -82.1, 26.8 ], [ -82.5, 27.0 ], [ -82.5, 27.3 ], [ -82.7, 27.3 ], [ -82.7, 27.6 ], [ -82.9, 27.8 ], [ -82.9, 28.3 ], [ -82.7, 28.4 ], [ -82.8, 29.1 ], [ -82.9, 29.2 ], [ -83.1, 29.1 ], [ -83.4, 29.7 ], [ -83.6, 29.7 ], [ -84.0, 30.1 ], [ -84.3, 30.1 ], [ -84.3, 29.9 ], [ -84.6, 29.9 ], [ -84.8, 29.6 ], [ -85.0, 29.7 ], [ -85.2, 29.6 ], [ -85.4, 29.7 ], [ -85.5, 30.0 ], [ -85.7, 30.0 ], [ -86.0, 30.3 ], [ -87.3, 30.4 ], [ -88.0, 30.2 ], [ -87.9, 30.3 ], [ -88.0, 30.6 ], [ -88.2, 30.2 ], [ -88.3, 30.4 ], [ -88.6, 30.2 ], [ -88.8, 30.3 ], [ -89.2, 30.2 ], [ -89.2, 29.9 ], [ -89.5, 29.6 ], [ -89.5, 29.4 ], [ -89.1, 29.3 ], [ -89.1, 29.0 ], [ -89.4, 29.0 ], [ -89.4, 29.2 ], [ -89.9, 29.4 ], [ -90.3, 29.0 ], [ -90.3, 29.3 ], [ -90.6, 29.3 ], [ -90.6, 29.0 ], [ -91.0, 29.0 ], [ -91.0, 29.2 ], [ -91.3, 29.2 ], [ -91.5, 29.6 ], [ -92.0, 29.5 ], [ -91.9, 29.8 ], [ -92.1, 29.8 ], [ -92.2, 29.5 ], [ -92.9, 29.6 ], [ -93.1, 29.8 ], [ -93.7, 29.8 ], [ -94.6, 29.5 ], [ -94.8, 29.2 ], [ -95.0, 29.2 ], [ -95.1, 29.0 ], [ -96.0, 28.5 ], [ -96.5, 28.6 ], [ -96.3, 28.4 ], [ -96.6, 28.3 ], [ -96.8, 28.0 ], [ -97.1, 28.0 ], [ -97.0, 27.8 ], [ -97.2, 27.7 ], [ -97.5, 26.9 ], [ -97.5, 26.7 ], [ -97.2, 26.5 ], [ -97.3, 26.1 ], [ -97.1, 26.1 ], [ -97.1, 25.8 ], [ -97.4, 25.2 ], [ -97.7, 25.3 ], [ -97.7, 25.0 ], [ -97.5, 25.1 ], [ -97.5, 24.9 ], [ -97.7, 24.9 ], [ -97.6, 24.6 ], [ -97.8, 24.5 ], [ -98.9, 24.6 ], [ -99.4, 24.1 ], [ -101.3, 23.9 ], [ -102.2, 24.7 ], [ -102.4, 24.7 ], [ -102.4, 24.0 ], [ -102.2, 23.7 ], [ -100.8, 23.7 ], [ -100.0, 23.0 ], [ -100.0, 22.8 ], [ -99.5, 22.3 ], [ -98.9, 22.0 ], [ -98.8, 21.3 ], [ -98.4, 20.9 ], [ -97.7, 20.8 ], [ -97.5, 21.1 ], [ -97.3, 21.1 ], [ -97.0, 20.4 ], [ -96.4, 19.9 ], [ -96.3, 19.3 ], [ -96.0, 19.3 ], [ -96.1, 19.1 ], [ -95.9, 19.1 ], [ -95.9, 18.8 ], [ -95.6, 18.8 ], [ -96.0, 18.3 ], [ -95.5, 17.3 ], [ -95.6, 16.1 ], [ -95.8, 15.8 ], [ -96.1, 15.7 ], [ -96.9, 15.7 ], [ -97.1, 15.9 ], [ -97.7, 16.0 ], [ -97.5, 16.7 ], [ -97.6, 17.7 ], [ -99.9, 17.7 ], [ -101.0, 18.5 ], [ -102.0, 18.5 ], [ -102.7, 18.8 ], [ -103.8, 18.7 ], [ -104.3, 19.1 ], [ -104.7, 19.1 ], [ -104.8, 19.3 ], [ -105.0, 19.3 ], [ -105.0, 19.5 ], [ -105.7, 20.3 ], [ -105.7, 20.5 ], [ -105.3, 20.5 ], [ -105.3, 20.8 ], [ -105.5, 20.7 ], [ -105.5, 20.9 ], [ -105.3, 21.0 ], [ -105.2, 21.5 ], [ -105.5, 21.6 ], [ -105.7, 22.0 ], [ -105.8, 22.7 ], [ -106.5, 23.2 ], [ -106.5, 23.4 ], [ -107.0, 23.8 ], [ -107.0, 24.0 ], [ -107.8, 24.4 ], [ -108.5, 25.3 ], [ -109.4, 25.6 ], [ -109.3, 25.8 ], [ -109.5, 25.8 ], [ -109.5, 26.0 ], [ -109.3, 26.2 ], [ -109.3, 26.6 ], [ -109.8, 26.7 ], [ -110.0, 27.1 ], [ -110.6, 27.3 ], [ -110.7, 27.9 ], [ -111.0, 27.8 ], [ -111.1, 28.0 ], [ -111.3, 28.0 ], [ -111.3, 28.2 ], [ -112.0, 28.7 ], [ -112.1, 29.0 ], [ -112.2, 28.8 ], [ -112.6, 28.7 ], [ -112.4, 29.6 ], [ -112.1, 29.8 ], [ -112.0, 30.1 ], [ -112.4, 30.5 ], [ -113.0, 30.5 ], [ -113.1, 31.2 ], [ -113.7, 31.3 ], [ -113.8, 31.6 ], [ -114.3, 31.5 ], [ -114.5, 31.7 ], [ -114.6, 31.6 ], [ -114.8, 31.7 ], [ -114.9, 31.1 ], [ -114.7, 31.0 ], [ -114.5, 29.9 ], [ -113.8, 29.5 ], [ -113.6, 29.1 ], [ -113.2, 28.9 ], [ -113.1, 28.5 ], [ -112.8, 28.5 ], [ -112.8, 27.9 ], [ -112.3, 27.5 ], [ -112.2, 27.2 ], [ -112.0, 27.3 ], [ -111.9, 27.1 ], [ -112.0, 26.9 ], [ -111.4, 26.7 ], [ -111.5, 26.4 ], [ -111.3, 26.2 ], [ -111.2, 25.6 ], [ -111.0, 25.5 ], [ -110.9, 25.1 ], [ -110.5, 25.0 ], [ -110.5, 24.8 ], [ -110.7, 24.9 ], [ -110.7, 24.3 ], [ -110.3, 24.2 ], [ -110.2, 24.4 ], [ -110.0, 24.0 ], [ -109.8, 24.3 ], [ -109.8, 23.9 ], [ -109.4, 23.5 ], [ -109.4, 23.2 ], [ -110.0, 22.8 ], [ -110.2, 23.4 ], [ -110.5, 23.7 ], [ -110.7, 23.7 ], [ -111.3, 24.3 ], [ -111.8, 24.3 ], [ -111.8, 24.6 ], [ -112.0, 24.8 ], [ -112.2, 24.6 ], [ -112.3, 25.0 ], [ -112.1, 25.3 ], [ -112.1, 25.8 ], [ -112.4, 26.3 ], [ -112.9, 26.4 ], [ -113.3, 26.8 ], [ -113.7, 26.7 ], [ -113.8, 27.0 ], [ -114.4, 27.1 ], [ -114.6, 27.5 ], [ -115.0, 27.7 ], [ -114.4, 27.8 ], [ -114.3, 28.0 ], [ -114.1, 28.1 ], [ -114.1, 28.5 ], [ -115.0, 29.4 ], [ -115.7, 29.7 ], [ -116.0, 30.7 ], [ -116.3, 30.9 ], [ -116.3, 31.2 ], [ -116.7, 31.5 ], [ -116.8, 31.7 ], [ -116.7, 31.9 ], [ -116.9, 32.0 ], [ -117.3, 32.7 ], [ -117.3, 33.1 ], [ -118.1, 33.8 ], [ -118.4, 33.7 ], [ -118.5, 34.0 ], [ -119.3, 34.1 ], [ -119.3, 34.3 ], [ -119.5, 34.4 ], [ -120.7, 34.5 ], [ -120.7, 35.2 ], [ -120.9, 35.2 ], [ -120.9, 35.4 ], [ -121.3, 35.6 ], [ -121.3, 35.8 ], [ -121.5, 35.8 ], [ -121.5, 36.0 ], [ -122.0, 36.4 ], [ -122.0, 36.7 ], [ -121.8, 36.7 ], [ -121.8, 36.9 ], [ -122.4, 37.1 ], [ -122.5, 37.8 ], [ -123.0, 38.0 ], [ -123.0, 38.3 ], [ -123.4, 38.5 ], [ -123.5, 38.8 ], [ -123.8, 38.9 ], [ -123.7, 39.0 ], [ -123.8, 39.8 ], [ -124.4, 40.2 ], [ -124.1, 41.6 ], [ -124.3, 41.8 ], [ -124.2, 42.0 ], [ -124.4, 42.1 ], [ -124.4, 42.6 ], [ -124.6, 42.8 ], [ -124.2, 43.7 ], [ -123.9, 46.3 ], [ -124.1, 46.3 ], [ -124.2, 47.2 ], [ -124.4, 47.4 ], [ -124.4, 47.7 ], [ -124.8, 48.1 ], [ -124.7, 48.2 ], [ -124.8, 48.4 ], [ -123.0, 48.1 ], [ -122.7, 48.3 ], [ -122.7, 48.5 ], [ -123.9, 48.3 ], [ -126.0, 49.1 ] ], [ [ -69.7, 48.1 ], [ -69.8, 47.9 ], [ -69.6, 47.8 ], [ -69.5, 48.0 ], [ -69.7, 48.1 ] ], [ [ -65.0, 45.5 ], [ -64.7, 45.6 ], [ -65.0, 45.6 ], [ -65.0, 45.5 ] ], [ [ -64.7, 45.6 ], [ -64.6, 45.7 ], [ -64.7, 45.7 ], [ -64.7, 45.6 ] ], [ [ -68.8, 44.2 ], [ -68.9, 44.3 ], [ -68.9, 44.2 ], [ -68.8, 44.2 ] ], [ [ -72.2, 41.1 ], [ -72.3, 41.0 ], [ -72.2, 41.0 ], [ -72.2, 41.1 ] ], [ [ -75.4, 39.3 ], [ -75.5, 39.4 ], [ -75.5, 39.3 ], [ -75.4, 39.3 ] ], [ [ -76.4, 39.0 ], [ -76.3, 39.2 ], [ -76.4, 39.2 ], [ -76.4, 39.0 ] ], [ [ -76.5, 35.1 ], [ -76.6, 35.0 ], [ -76.5, 35.0 ], [ -76.5, 35.1 ] ], [ [ -82.2, 26.5 ], [ -82.1, 26.6 ], [ -82.2, 26.6 ], [ -82.2, 26.5 ] ], [ [ -82.7, 27.6 ], [ -82.6, 27.7 ], [ -82.7, 27.7 ], [ -82.7, 27.6 ] ], [ [ -82.6, 27.7 ], [ -82.5, 27.8 ], [ -82.6, 27.8 ], [ -82.6, 27.7 ] ], [ [ -86.4, 30.4 ], [ -86.3, 30.5 ], [ -86.4, 30.5 ], [ -86.4, 30.4 ] ], [ [ -87.2, 30.4 ], [ -87.1, 30.5 ], [ -87.2, 30.5 ], [ -87.2, 30.4 ] ], [ [ -88.9, 30.3 ], [ -89.0, 30.4 ], [ -89.0, 30.3 ], [ -88.9, 30.3 ] ], [ [ -89.2, 30.2 ], [ -89.4, 30.3 ], [ -89.4, 30.1 ], [ -89.2, 30.2 ] ], [ [ -91.7, 29.6 ], [ -91.8, 29.7 ], [ -91.8, 29.6 ], [ -91.7, 29.6 ] ], [ [ -94.9, 29.3 ], [ -94.7, 29.8 ], [ -95.0, 29.6 ], [ -94.9, 29.3 ] ], [ [ -96.7, 28.2 ], [ -96.8, 28.4 ], [ -96.8, 28.2 ], [ -96.7, 28.2 ] ], [ [ -97.2, 27.7 ], [ -97.3, 27.8 ], [ -97.3, 27.7 ], [ -97.2, 27.7 ] ], [ [ -108.4, 25.2 ], [ -108.3, 25.3 ], [ -108.4, 25.3 ], [ -108.4, 25.2 ] ], [ [ -114.3, 27.9 ], [ -114.2, 27.8 ], [ -114.2, 27.9 ], [ -114.3, 27.9 ] ], [ [ -122.8, 48.2 ], [ -122.7, 48.1 ], [ -122.7, 48.2 ], [ -122.8, 48.2 ] ], [ [ -122.7, 48.1 ], [ -122.6, 48.0 ], [ -122.6, 48.1 ], [ -122.7, 48.1 ] ], [ [ -122.6, 48.0 ], [ -122.5, 47.9 ], [ -122.5, 48.0 ], [ -122.6, 48.0 ] ], [ [ -122.5, 47.9 ], [ -122.4, 47.7 ], [ -122.4, 47.9 ], [ -122.5, 47.9 ] ], [ [ -123.2, 48.5 ], [ -123.3, 48.7 ], [ -123.3, 48.5 ], [ -123.2, 48.5 ] ], [ [ -123.7, 49.2 ], [ -123.0, 48.6 ], [ -123.0, 48.8 ], [ -122.8, 48.8 ], [ -122.8, 49.0 ], [ -123.2, 49.0 ], [ -123.3, 49.3 ], [ -123.8, 49.4 ], [ -124.0, 49.6 ], [ -124.2, 49.5 ], [ -124.1, 49.3 ], [ -123.7, 49.2 ] ], [ [ -124.2, 49.4 ], [ -124.3, 49.3 ], [ -124.2, 49.3 ], [ -124.2, 49.4 ] ], [ [ -124.3, 49.5 ], [ -124.7, 49.7 ], [ -124.7, 49.9 ], [ -125.2, 50.1 ], [ -125.2, 49.9 ], [ -125.0, 49.9 ], [ -124.8, 49.5 ], [ -124.6, 49.6 ], [ -124.6, 49.4 ], [ -124.3, 49.5 ] ], [ [ -123.7, 49.1 ], [ -123.8, 49.0 ], [ -123.7, 49.0 ], [ -123.7, 49.1 ] ], [ [ -125.2, 48.9 ], [ -125.1, 49.0 ], [ -125.2, 49.0 ], [ -125.2, 48.9 ] ], [ [ -124.3, 49.7 ], [ -124.2, 49.6 ], [ -124.2, 49.7 ], [ -124.3, 49.7 ] ], [ [ -104.4, 49.1 ], [ -106.1, 48.1 ], [ -107.1, 47.9 ], [ -107.9, 47.1 ], [ -107.9, 46.8 ], [ -107.7, 46.7 ], [ -107.3, 45.8 ], [ -107.0, 45.5 ], [ -106.5, 45.6 ], [ -106.3, 46.6 ], [ -106.0, 47.0 ], [ -104.7, 47.4 ], [ -104.3, 47.9 ], [ -104.1, 47.9 ], [ -103.6, 48.4 ], [ -103.6, 48.8 ], [ -103.9, 49.1 ], [ -104.4, 49.1 ] ], [ [ -122.6, 48.8 ], [ -122.5, 48.7 ], [ -122.5, 48.8 ], [ -122.6, 48.8 ] ], [ [ -112.3, 47.9 ], [ -111.5, 47.7 ], [ -111.0, 47.2 ], [ -110.7, 47.1 ], [ -110.3, 47.3 ], [ -110.3, 47.9 ], [ -111.3, 48.4 ], [ -111.7, 48.5 ], [ -112.1, 48.4 ], [ -112.3, 48.2 ], [ -112.3, 47.9 ] ], [ [ -122.6, 48.3 ], [ -122.5, 48.2 ], [ -122.5, 48.3 ], [ -122.6, 48.3 ] ], [ [ -86.9, 47.5 ], [ -86.4, 47.0 ], [ -86.1, 47.0 ], [ -85.9, 47.7 ], [ -86.1, 47.9 ], [ -86.9, 47.8 ], [ -86.9, 47.5 ] ], [ [ -69.8, 47.6 ], [ -69.8, 47.8 ], [ -70.0, 47.8 ], [ -70.7, 47.1 ], [ -70.1, 47.3 ], [ -70.1, 47.5 ], [ -69.8, 47.6 ] ], [ [ -70.7, 47.1 ], [ -70.8, 47.0 ], [ -70.7, 47.0 ], [ -70.7, 47.1 ] ], [ [ -122.5, 47.6 ], [ -122.4, 47.5 ], [ -122.4, 47.6 ], [ -122.5, 47.6 ] ], [ [ -65.2, 47.2 ], [ -65.1, 47.1 ], [ -65.1, 47.2 ], [ -65.2, 47.2 ] ], [ [ -71.9, 46.7 ], [ -71.8, 46.6 ], [ -71.8, 46.7 ], [ -71.9, 46.7 ] ], [ [ -71.7, 46.7 ], [ -71.6, 46.6 ], [ -71.6, 46.7 ], [ -71.7, 46.7 ] ], [ [ -105.3, 45.8 ], [ -105.8, 45.4 ], [ -105.8, 45.0 ], [ -105.6, 44.7 ], [ -105.3, 44.7 ], [ -104.7, 45.4 ], [ -104.2, 45.6 ], [ -104.1, 46.0 ], [ -104.3, 46.3 ], [ -104.9, 46.4 ], [ -105.3, 45.8 ] ], [ [ -123.8, 46.3 ], [ -123.7, 46.2 ], [ -123.7, 46.3 ], [ -123.8, 46.3 ] ], [ [ -72.8, 46.3 ], [ -72.7, 46.2 ], [ -72.7, 46.3 ], [ -72.8, 46.3 ] ], [ [ -73.0, 46.2 ], [ -72.9, 46.1 ], [ -72.9, 46.2 ], [ -73.0, 46.2 ] ], [ [ -60.9, 45.9 ], [ -60.7, 45.8 ], [ -60.7, 45.9 ], [ -60.9, 45.9 ] ], [ [ -102.4, 45.2 ], [ -101.4, 45.0 ], [ -101.1, 45.4 ], [ -101.7, 45.8 ], [ -102.3, 45.7 ], [ -102.4, 45.2 ] ], [ [ -73.9, 45.4 ], [ -73.8, 45.3 ], [ -73.8, 45.4 ], [ -73.9, 45.4 ] ], [ [ -63.9, 45.4 ], [ -63.5, 45.3 ], [ -63.5, 45.4 ], [ -63.9, 45.4 ] ], [ [ -105.3, 43.6 ], [ -105.4, 43.7 ], [ -105.4, 43.6 ], [ -105.3, 43.6 ] ], [ [ -105.3, 43.6 ], [ -105.2, 43.5 ], [ -105.2, 43.6 ], [ -105.3, 43.6 ] ], [ [ -70.7, 41.7 ], [ -70.9, 41.5 ], [ -70.7, 41.4 ], [ -70.7, 41.7 ] ], [ [ -73.7, 41.0 ], [ -73.5, 40.9 ], [ -73.5, 41.0 ], [ -73.7, 41.0 ] ], [ [ -76.3, 38.9 ], [ -76.2, 38.8 ], [ -76.2, 38.9 ], [ -76.3, 38.9 ] ], [ [ -77.0, 38.3 ], [ -76.8, 38.2 ], [ -76.8, 38.3 ], [ -77.0, 38.3 ] ], [ [ -76.5, 38.1 ], [ -76.6, 38.2 ], [ -76.6, 38.1 ], [ -76.5, 38.1 ] ], [ [ -76.5, 38.1 ], [ -76.4, 38.0 ], [ -76.4, 38.1 ], [ -76.5, 38.1 ] ], [ [ -122.3, 38.0 ], [ -122.5, 38.1 ], [ -122.5, 37.9 ], [ -122.3, 38.0 ] ], [ [ -122.4, 37.9 ], [ -122.3, 37.8 ], [ -122.3, 37.9 ], [ -122.4, 37.9 ] ], [ [ -122.4, 37.7 ], [ -122.2, 37.6 ], [ -122.2, 37.7 ], [ -122.4, 37.7 ] ], [ [ -76.7, 37.2 ], [ -76.6, 37.0 ], [ -76.6, 37.2 ], [ -76.7, 37.2 ] ], [ [ -76.5, 37.0 ], [ -76.4, 36.9 ], [ -76.4, 37.0 ], [ -76.5, 37.0 ] ], [ [ -75.9, 36.2 ], [ -76.4, 36.1 ], [ -76.4, 36.0 ], [ -75.8, 36.0 ], [ -75.9, 36.2 ] ], [ [ -89.7, 29.9 ], [ -89.5, 30.1 ], [ -89.7, 30.1 ], [ -89.7, 29.9 ] ], [ [ -112.3, 29.2 ], [ -112.2, 29.1 ], [ -112.2, 29.2 ], [ -112.3, 29.2 ] ], [ [ -100.5, 27.3 ], [ -100.1, 27.6 ], [ -100.1, 27.9 ], [ -100.3, 28.1 ], [ -100.5, 28.2 ], [ -101.1, 28.1 ], [ -101.1, 27.4 ], [ -100.5, 27.3 ] ], [ [ -97.1, 28.2 ], [ -97.0, 28.1 ], [ -97.0, 28.2 ], [ -97.1, 28.2 ] ], [ [ -103.9, 27.8 ], [ -104.4, 26.7 ], [ -103.4, 26.9 ], [ -102.8, 26.7 ], [ -102.4, 26.2 ], [ -102.1, 26.2 ], [ -101.8, 26.7 ], [ -101.8, 27.5 ], [ -102.1, 28.0 ], [ -103.9, 27.8 ] ], [ [ -82.7, 28.0 ], [ -82.5, 27.9 ], [ -82.5, 28.0 ], [ -82.7, 28.0 ] ], [ [ -107.6, 26.3 ], [ -106.8, 26.2 ], [ -106.6, 25.2 ], [ -106.4, 25.0 ], [ -106.0, 25.0 ], [ -105.0, 25.3 ], [ -104.6, 26.6 ], [ -105.5, 26.5 ], [ -106.5, 26.9 ], [ -106.6, 27.1 ], [ -107.1, 27.1 ], [ -107.3, 26.8 ], [ -107.6, 26.7 ], [ -107.6, 26.3 ] ], [ [ -111.9, 26.8 ], [ -111.8, 26.7 ], [ -111.8, 26.8 ], [ -111.9, 26.8 ] ], [ [ -111.7, 24.5 ], [ -111.6, 24.4 ], [ -111.6, 24.5 ], [ -111.7, 24.5 ] ] ], [ [ [ -127.5, 51.5 ], [ -127.8, 51.2 ], [ -127.8, 51.6 ], [ -128.0, 51.4 ], [ -128.3, 52.0 ], [ -128.5, 51.9 ], [ -128.5, 52.2 ], [ -127.8, 52.2 ], [ -127.6, 52.0 ], [ -127.5, 51.5 ] ], [ [ -127.9, 52.0 ], [ -128.0, 51.7 ], [ -127.9, 51.7 ], [ -127.9, 52.0 ] ] ], [ [ [ -102.2, 52.8 ], [ -102.1, 52.9 ], [ -102.1, 52.8 ], [ -102.2, 52.8 ] ] ], [ [ [ -87.0, 53.9 ], [ -86.4, 53.2 ], [ -86.4, 52.7 ], [ -86.8, 52.1 ], [ -87.6, 52.0 ], [ -88.2, 52.4 ], [ -88.3, 53.3 ], [ -87.9, 53.9 ], [ -87.0, 53.9 ] ] ], [ [ [ -131.9, 53.3 ], [ -131.8, 53.2 ], [ -131.9, 53.2 ], [ -131.9, 53.3 ] ] ], [ [ [ -130.0, 53.8 ], [ -129.9, 53.7 ], [ -130.0, 53.7 ], [ -130.0, 53.8 ] ] ], [ [ [ -123.1, 53.8 ], [ -123.0, 53.9 ], [ -123.0, 53.8 ], [ -123.1, 53.8 ] ] ], [ [ [ -110.3, 54.4 ], [ -110.2, 54.5 ], [ -110.2, 54.4 ], [ -110.3, 54.4 ] ] ], [ [ [ -101.1, 55.4 ], [ -100.9, 54.6 ], [ -101.4, 53.9 ], [ -102.0, 53.8 ], [ -102.6, 54.2 ], [ -102.7, 55.1 ], [ -102.3, 55.6 ], [ -101.4, 55.6 ], [ -101.1, 55.4 ] ] ], [ [ [ -89.0, 55.6 ], [ -88.1, 54.7 ], [ -88.2, 54.2 ], [ -88.9, 54.2 ], [ -89.7, 54.5 ], [ -89.8, 55.3 ], [ -89.6, 55.5 ], [ -89.0, 55.6 ] ] ], [ [ [ -131.7, 55.3 ], [ -131.6, 55.4 ], [ -131.6, 55.3 ], [ -131.7, 55.3 ] ] ], [ [ [ -97.9, 55.7 ], [ -97.8, 55.8 ], [ -97.8, 55.7 ], [ -97.9, 55.7 ] ] ], [ [ [ -111.6, 56.3 ], [ -111.5, 56.4 ], [ -111.5, 56.3 ], [ -111.6, 56.3 ] ] ], [ [ [ -134.5, 56.9 ], [ -134.3, 56.8 ], [ -134.5, 56.8 ], [ -134.5, 56.9 ] ] ], [ [ [ -135.0, 58.1 ], [ -134.6, 56.3 ], [ -134.8, 56.2 ], [ -135.2, 56.7 ], [ -135.6, 56.8 ], [ -135.5, 57.1 ], [ -135.9, 57.0 ], [ -135.8, 57.2 ], [ -136.1, 57.5 ], [ -136.1, 57.7 ], [ -135.6, 58.2 ], [ -135.0, 58.1 ] ], [ [ -135.6, 57.7 ], [ -135.5, 57.6 ], [ -135.5, 57.7 ], [ -135.6, 57.7 ] ] ], [ [ [ -134.7, 59.1 ], [ -134.2, 58.6 ], [ -134.2, 58.2 ], [ -134.4, 57.9 ], [ -134.3, 57.1 ], [ -134.6, 57.0 ], [ -134.8, 58.1 ], [ -134.9, 58.3 ], [ -135.4, 58.3 ], [ -135.4, 58.8 ], [ -135.2, 58.8 ], [ -135.1, 59.1 ], [ -134.7, 59.1 ] ], [ [ -135.2, 58.7 ], [ -135.1, 58.4 ], [ -134.9, 58.4 ], [ -135.0, 58.8 ], [ -135.2, 58.7 ] ], [ [ -134.6, 58.3 ], [ -134.7, 58.2 ], [ -134.6, 58.2 ], [ -134.6, 58.3 ] ] ], [ [ [ -134.6, 61.5 ], [ -134.2, 61.1 ], [ -134.2, 60.3 ], [ -134.5, 60.0 ], [ -135.3, 59.9 ], [ -135.7, 60.2 ], [ -135.8, 61.1 ], [ -135.6, 61.4 ], [ -134.9, 61.6 ], [ -134.6, 61.5 ] ] ], [ [ [ -149.3, 61.9 ], [ -149.0, 61.5 ], [ -149.0, 60.9 ], [ -149.4, 60.4 ], [ -150.3, 60.3 ], [ -150.7, 60.6 ], [ -150.8, 61.0 ], [ -149.9, 61.0 ], [ -150.3, 61.1 ], [ -150.0, 61.3 ], [ -150.8, 61.2 ], [ -150.8, 61.5 ], [ -150.5, 61.9 ], [ -149.8, 62.1 ], [ -149.3, 61.9 ] ], [ [ -149.5, 61.5 ], [ -149.7, 61.4 ], [ -149.5, 61.4 ], [ -149.5, 61.5 ] ], [ [ -149.8, 61.4 ], [ -149.9, 61.3 ], [ -149.8, 61.3 ], [ -149.8, 61.4 ] ] ], [ [ [ -113.5, 63.1 ], [ -113.3, 62.7 ], [ -113.3, 62.2 ], [ -113.8, 61.5 ], [ -114.8, 61.4 ], [ -115.4, 61.9 ], [ -115.5, 62.9 ], [ -115.2, 63.3 ], [ -114.8, 63.5 ], [ -114.0, 63.5 ], [ -113.5, 63.1 ] ] ], [ [ [ -147.2, 65.1 ], [ -147.5, 64.3 ], [ -148.1, 64.3 ], [ -148.4, 64.6 ], [ -148.4, 65.1 ], [ -148.1, 65.4 ], [ -147.5, 65.4 ], [ -147.2, 65.1 ] ] ], [ [ [ -84.5, 21.8 ], [ -84.4, 21.9 ], [ -84.4, 21.8 ], [ -84.5, 21.8 ] ] ], [ [ [ -82.2, 24.5 ], [ -82.1, 24.6 ], [ -82.1, 24.5 ], [ -82.2, 24.5 ] ] ], [ [ [ -81.8, 24.7 ], [ -81.6, 24.5 ], [ -82.0, 24.5 ], [ -81.8, 24.7 ] ] ], [ [ [ -81.6, 24.6 ], [ -81.7, 24.8 ], [ -81.3, 24.8 ], [ -81.3, 24.6 ], [ -81.6, 24.6 ] ] ], [ [ [ -81.1, 24.8 ], [ -81.0, 24.7 ], [ -81.1, 24.7 ], [ -81.1, 24.8 ] ] ], [ [ [ -80.8, 24.8 ], [ -80.7, 24.9 ], [ -80.7, 24.8 ], [ -80.8, 24.8 ] ] ], [ [ [ -79.3, 25.7 ], [ -79.2, 25.8 ], [ -79.2, 25.7 ], [ -79.3, 25.7 ] ] ], [ [ [ -13.3, 27.5 ], [ -13.2, 27.6 ], [ -13.2, 27.5 ], [ -13.3, 27.5 ] ] ], [ [ [ -17.9, 27.7 ], [ -18.2, 27.7 ], [ -18.2, 27.8 ], [ -17.9, 27.9 ], [ -17.9, 27.7 ] ] ], [ [ [ -15.5, 27.7 ], [ -15.8, 27.8 ], [ -15.7, 28.2 ], [ -15.4, 28.2 ], [ -15.3, 28.0 ], [ -15.5, 27.7 ] ] ], [ [ [ -17.1, 28.0 ], [ -17.3, 28.0 ], [ -17.4, 28.2 ], [ -17.1, 28.2 ], [ -17.1, 28.0 ] ] ], [ [ [ -16.5, 28.0 ], [ -16.8, 28.0 ], [ -17.0, 28.4 ], [ -16.5, 28.4 ], [ -16.4, 28.6 ], [ -16.1, 28.6 ], [ -16.3, 28.5 ], [ -16.5, 28.0 ] ] ], [ [ [ -14.2, 28.2 ], [ -14.3, 28.0 ], [ -14.5, 28.0 ], [ -14.0, 28.6 ], [ -13.9, 29.0 ], [ -13.6, 29.1 ], [ -13.6, 29.3 ], [ -13.4, 29.3 ], [ -13.4, 29.0 ], [ -13.8, 28.9 ], [ -13.8, 28.3 ], [ -14.2, 28.2 ] ] ], [ [ [ -18.0, 28.6 ], [ -18.0, 28.9 ], [ -17.7, 28.8 ], [ -17.8, 28.5 ], [ -18.0, 28.6 ] ] ], [ [ [ -16.8, 32.6 ], [ -17.3, 32.7 ], [ -17.3, 32.9 ], [ -16.7, 32.8 ], [ -16.8, 32.6 ] ] ], [ [ [ -16.4, 33.0 ], [ -16.3, 33.1 ], [ -16.3, 33.0 ], [ -16.4, 33.0 ] ] ], [ [ [ -76.1, 35.1 ], [ -76.0, 35.0 ], [ -76.1, 35.0 ], [ -76.1, 35.1 ] ] ], [ [ [ -76.0, 35.2 ], [ -75.8, 35.1 ], [ -76.0, 35.1 ], [ -76.0, 35.2 ] ] ], [ [ [ -75.7, 35.3 ], [ -75.5, 35.2 ], [ -75.7, 35.2 ], [ -75.7, 35.3 ] ] ], [ [ [ -25.2, 37.7 ], [ -25.8, 37.7 ], [ -25.9, 37.9 ], [ -25.7, 37.8 ], [ -25.1, 37.9 ], [ -25.2, 37.7 ] ] ], [ [ [ -76.1, 37.9 ], [ -76.0, 38.0 ], [ -76.0, 37.9 ], [ -76.1, 37.9 ] ] ], [ [ [ -72.0, 41.0 ], [ -71.8, 41.1 ], [ -71.8, 41.0 ], [ -72.0, 41.0 ] ] ], [ [ [ -70.1, 41.3 ], [ -70.0, 41.2 ], [ -70.1, 41.2 ], [ -70.1, 41.3 ] ] ], [ [ [ -70.1, 41.9 ], [ -70.1, 42.0 ], [ -70.3, 42.1 ], [ -70.0, 42.1 ], [ -70.1, 41.9 ] ] ], [ [ [ -69.2, 43.8 ], [ -69.1, 43.9 ], [ -69.1, 43.8 ], [ -69.2, 43.8 ] ] ], [ [ [ -60.1, 43.9 ], [ -59.8, 44.0 ], [ -59.8, 43.9 ], [ -60.1, 43.9 ] ] ], [ [ [ -68.5, 44.1 ], [ -68.4, 44.2 ], [ -68.4, 44.1 ], [ -68.5, 44.1 ] ] ], [ [ [ -66.4, 44.2 ], [ -66.3, 44.3 ], [ -66.3, 44.2 ], [ -66.4, 44.2 ] ] ], [ [ [ -66.3, 44.4 ], [ -66.2, 44.3 ], [ -66.3, 44.3 ], [ -66.3, 44.4 ] ] ], [ [ [ -66.1, 44.4 ], [ -66.2, 44.5 ], [ -66.1, 44.5 ], [ -66.1, 44.4 ] ] ], [ [ [ -66.9, 44.8 ], [ -66.7, 44.8 ], [ -66.7, 44.6 ], [ -66.9, 44.6 ], [ -66.9, 44.8 ] ] ], [ [ [ -63.8, 46.6 ], [ -62.0, 46.4 ], [ -62.5, 46.2 ], [ -62.4, 46.0 ], [ -62.8, 45.9 ], [ -63.1, 46.2 ], [ -63.4, 46.1 ], [ -63.7, 46.2 ], [ -63.8, 46.4 ], [ -64.2, 46.4 ], [ -64.1, 46.6 ], [ -64.4, 46.6 ], [ -64.4, 46.8 ], [ -64.0, 47.0 ], [ -63.8, 46.6 ] ] ], [ [ [ -60.2, 47.3 ], [ -60.1, 47.2 ], [ -60.2, 47.2 ], [ -60.2, 47.3 ] ] ], [ [ [ -61.7, 47.5 ], [ -61.8, 47.2 ], [ -62.0, 47.2 ], [ -62.0, 47.4 ], [ -61.7, 47.5 ] ] ], [ [ [ -61.7, 47.5 ], [ -61.7, 47.6 ], [ -61.5, 47.6 ], [ -61.5, 47.5 ], [ -61.7, 47.5 ] ] ], [ [ [ -54.3, 47.5 ], [ -54.6, 47.3 ], [ -54.4, 48.1 ], [ -53.8, 48.8 ], [ -53.6, 48.7 ], [ -53.6, 48.5 ], [ -53.0, 48.7 ], [ -53.0, 48.4 ], [ -53.5, 48.3 ], [ -53.5, 48.1 ], [ -53.7, 48.0 ], [ -53.6, 47.6 ], [ -53.4, 48.0 ], [ -52.9, 48.2 ], [ -53.0, 47.8 ], [ -53.2, 47.8 ], [ -53.2, 47.5 ], [ -52.9, 47.5 ], [ -53.0, 47.6 ], [ -52.9, 47.8 ], [ -52.6, 47.7 ], [ -52.6, 47.4 ], [ -52.8, 47.3 ], [ -53.0, 46.6 ], [ -53.3, 46.7 ], [ -53.6, 46.6 ], [ -53.7, 46.9 ], [ -54.2, 46.8 ], [ -54.0, 47.5 ], [ -54.2, 47.5 ], [ -54.1, 47.3 ], [ -54.3, 47.3 ], [ -54.3, 47.5 ] ], [ [ -53.7, 46.9 ], [ -53.6, 47.0 ], [ -53.7, 47.0 ], [ -53.7, 46.9 ] ], [ [ -54.0, 47.5 ], [ -53.9, 47.6 ], [ -54.0, 47.6 ], [ -54.0, 47.5 ] ], [ [ -54.2, 47.8 ], [ -54.0, 47.7 ], [ -54.0, 47.8 ], [ -54.2, 47.8 ] ], [ [ -54.2, 47.7 ], [ -54.3, 47.6 ], [ -54.2, 47.6 ], [ -54.2, 47.7 ] ] ], [ [ [ -74.7, 48.0 ], [ -74.6, 47.9 ], [ -74.7, 47.9 ], [ -74.7, 48.0 ] ] ], [ [ [ -64.2, 48.9 ], [ -64.3, 48.4 ], [ -64.6, 48.4 ], [ -65.1, 48.0 ], [ -65.7, 48.1 ], [ -65.3, 48.5 ], [ -65.1, 49.3 ], [ -64.2, 48.9 ] ] ], [ [ [ -54.8, 49.6 ], [ -54.7, 49.7 ], [ -54.7, 49.6 ], [ -54.8, 49.6 ] ] ], [ [ [ -62.9, 49.6 ], [ -62.7, 49.7 ], [ -62.7, 49.6 ], [ -62.9, 49.6 ] ] ], [ [ [ -57.4, 49.4 ], [ -57.6, 49.2 ], [ -58.3, 49.3 ], [ -58.3, 49.5 ], [ -58.0, 49.5 ], [ -58.0, 49.8 ], [ -57.7, 50.0 ], [ -57.7, 50.2 ], [ -57.3, 50.0 ], [ -57.4, 49.4 ] ] ], [ [ [ -63.7, 49.5 ], [ -64.5, 49.8 ], [ -64.5, 49.9 ], [ -64.4, 50.0 ], [ -63.6, 49.9 ], [ -63.7, 49.5 ] ] ], [ [ [ -74.4, 50.0 ], [ -74.3, 49.9 ], [ -74.4, 49.9 ], [ -74.4, 50.0 ] ] ], [ [ [ -66.9, 50.0 ], [ -66.8, 50.1 ], [ -66.8, 50.0 ], [ -66.9, 50.0 ] ] ], [ [ [ -64.0, 50.3 ], [ -64.2, 50.2 ], [ -64.7, 50.4 ], [ -64.5, 50.6 ], [ -63.9, 50.6 ], [ -63.7, 50.4 ], [ -63.7, 50.2 ], [ -64.0, 50.3 ] ] ], [ [ [ -80.4, 51.3 ], [ -80.1, 51.3 ], [ -80.1, 51.1 ], [ -80.4, 50.8 ], [ -81.0, 50.8 ], [ -81.2, 51.1 ], [ -81.1, 51.8 ], [ -81.0, 51.9 ], [ -80.6, 51.8 ], [ -80.4, 51.3 ] ] ], [ [ [ -82.3, 53.1 ], [ -81.7, 52.6 ], [ -81.7, 52.4 ], [ -82.0, 52.1 ], [ -83.0, 52.2 ], [ -83.3, 52.6 ], [ -83.2, 53.5 ], [ -82.8, 53.8 ], [ -82.1, 53.8 ], [ -82.1, 53.2 ], [ -82.3, 53.1 ] ] ], [ [ [ -81.5, 52.8 ], [ -82.0, 53.2 ], [ -81.6, 53.2 ], [ -81.5, 52.8 ] ] ], [ [ [ -60.2, 53.5 ], [ -60.1, 53.7 ], [ -60.1, 53.5 ], [ -60.2, 53.5 ] ] ], [ [ [ -59.8, 54.8 ], [ -59.7, 55.0 ], [ -59.7, 54.8 ], [ -59.8, 54.8 ] ] ], [ [ [ -77.8, 55.4 ], [ -77.7, 55.3 ], [ -77.8, 55.3 ], [ -77.8, 55.4 ] ] ], [ [ [ -13.2, 27.7 ], [ -13.1, 27.6 ], [ -13.2, 27.6 ], [ -13.2, 27.7 ] ] ], [ [ [ -13.1, 27.8 ], [ -13.0, 27.7 ], [ -13.1, 27.7 ], [ -13.1, 27.8 ] ] ], [ [ [ -12.9, 27.8 ], [ -13.0, 28.0 ], [ -12.9, 28.0 ], [ -12.9, 27.8 ] ] ], [ [ [ -10.2, 28.9 ], [ -10.1, 29.1 ], [ -10.1, 28.9 ], [ -10.2, 28.9 ] ] ], [ [ [ -7.5, 32.3 ], [ -6.4, 31.5 ], [ -5.8, 31.5 ], [ -5.6, 31.3 ], [ -5.6, 31.1 ], [ -5.9, 30.8 ], [ -5.9, 29.7 ], [ -6.2, 29.4 ], [ -7.2, 29.5 ], [ -8.0, 30.4 ], [ -8.2, 30.4 ], [ -8.5, 30.7 ], [ -8.8, 30.6 ], [ -8.9, 30.1 ], [ -9.2, 29.8 ], [ -9.5, 29.7 ], [ -9.8, 29.8 ], [ -9.6, 30.3 ], [ -9.9, 30.6 ], [ -9.8, 31.3 ], [ -8.8, 31.1 ], [ -8.7, 31.9 ], [ -8.3, 32.3 ], [ -7.5, 32.3 ] ] ], [ [ [ -3.5, 31.6 ], [ -3.5, 30.9 ], [ -4.0, 30.5 ], [ -4.7, 30.6 ], [ -5.1, 31.1 ], [ -5.0, 31.6 ], [ -4.5, 32.0 ], [ -4.0, 32.0 ], [ -3.5, 31.6 ] ] ], [ [ [ -5.3, 35.6 ], [ -4.8, 35.2 ], [ -5.1, 35.0 ], [ -6.2, 35.1 ], [ -6.0, 35.8 ], [ -5.6, 35.9 ], [ -5.3, 35.9 ], [ -5.3, 35.6 ] ] ], [ [ [ 6.6, 36.4 ], [ 6.7, 36.5 ], [ 6.7, 36.4 ], [ 6.6, 36.4 ] ] ], [ [ [ 2.9, 39.1 ], [ 3.0, 39.2 ], [ 3.0, 39.1 ], [ 2.9, 39.1 ] ] ], [ [ [ 3.5, 39.6 ], [ 2.7, 39.3 ], [ 2.7, 39.5 ], [ 2.3, 39.6 ], [ 2.7, 39.9 ], [ 3.2, 40.0 ], [ 3.2, 39.8 ], [ 3.5, 39.8 ], [ 3.5, 39.6 ] ] ], [ [ [ 4.2, 40.1 ], [ 4.3, 39.8 ], [ 3.8, 39.9 ], [ 3.8, 40.1 ], [ 4.2, 40.1 ] ] ], [ [ [ 8.2, 41.0 ], [ 8.4, 41.1 ], [ 8.4, 41.0 ], [ 8.2, 41.0 ] ] ], [ [ [ -2.4, 46.7 ], [ -2.3, 46.8 ], [ -2.3, 46.7 ], [ -2.4, 46.7 ] ] ], [ [ [ 8.0, 55.6 ], [ 8.2, 55.7 ], [ 8.1, 56.7 ], [ 8.4, 56.6 ], [ 8.2, 56.8 ], [ 8.3, 57.0 ], [ 9.5, 57.2 ], [ 9.9, 57.6 ], [ 10.5, 57.7 ], [ 10.6, 57.2 ], [ 10.3, 57.0 ], [ 10.3, 56.7 ], [ 10.4, 56.5 ], [ 11.0, 56.4 ], [ 10.7, 56.1 ], [ 10.2, 56.2 ], [ 10.3, 55.9 ], [ 10.1, 55.7 ], [ 10.5, 55.5 ], [ 10.7, 55.6 ], [ 10.8, 55.1 ], [ 10.7, 55.1 ], [ 10.6, 54.9 ], [ 10.5, 54.9 ], [ 10.5, 55.0 ], [ 10.3, 54.9 ], [ 10.0, 55.0 ], [ 10.0, 54.5 ], [ 10.4, 54.5 ], [ 10.7, 54.3 ], [ 11.3, 54.5 ], [ 10.8, 54.0 ], [ 11.4, 53.9 ], [ 11.6, 54.2 ], [ 12.1, 54.2 ], [ 12.4, 54.3 ], [ 12.5, 54.5 ], [ 13.1, 54.5 ], [ 13.2, 54.7 ], [ 13.7, 54.6 ], [ 13.7, 54.3 ], [ 13.5, 54.2 ], [ 13.8, 54.2 ], [ 14.3, 53.9 ], [ 15.5, 54.2 ], [ 15.4, 54.0 ], [ 14.6, 53.8 ], [ 14.9, 52.7 ], [ 15.6, 52.2 ], [ 15.9, 51.7 ], [ 15.8, 50.8 ], [ 15.0, 50.0 ], [ 14.9, 49.6 ], [ 15.7, 49.5 ], [ 16.2, 49.8 ], [ 17.1, 49.8 ], [ 17.6, 49.5 ], [ 18.5, 49.4 ], [ 19.1, 49.8 ], [ 20.1, 49.9 ], [ 20.6, 49.7 ], [ 21.2, 49.0 ], [ 21.8, 48.8 ], [ 22.2, 48.1 ], [ 22.3, 47.2 ], [ 21.7, 46.8 ], [ 21.2, 46.7 ], [ 21.1, 46.3 ], [ 21.6, 45.9 ], [ 22.0, 45.8 ], [ 22.4, 45.3 ], [ 22.6, 45.3 ], [ 23.1, 44.8 ], [ 23.9, 43.5 ], [ 24.8, 43.5 ], [ 25.3, 43.1 ], [ 25.4, 42.7 ], [ 26.3, 41.8 ], [ 26.3, 41.4 ], [ 26.1, 41.1 ], [ 26.1, 40.7 ], [ 26.3, 40.6 ], [ 25.1, 41.0 ], [ 24.8, 40.9 ], [ 24.7, 40.5 ], [ 24.5, 40.6 ], [ 24.6, 40.9 ], [ 24.3, 40.9 ], [ 24.2, 40.7 ], [ 23.7, 40.8 ], [ 23.9, 40.4 ], [ 24.2, 40.4 ], [ 23.8, 40.3 ], [ 24.0, 40.2 ], [ 24.0, 39.9 ], [ 23.5, 40.3 ], [ 23.5, 40.0 ], [ 23.3, 40.0 ], [ 23.3, 40.2 ], [ 23.0, 40.3 ], [ 22.8, 40.6 ], [ 22.3, 40.4 ], [ 22.2, 40.1 ], [ 21.7, 39.7 ], [ 21.3, 39.6 ], [ 20.4, 39.7 ], [ 20.1, 40.0 ], [ 19.9, 40.0 ], [ 19.4, 40.9 ], [ 19.5, 41.8 ], [ 19.1, 41.9 ], [ 18.9, 42.3 ], [ 18.6, 42.3 ], [ 17.8, 42.8 ], [ 17.5, 42.7 ], [ 17.4, 42.9 ], [ 16.6, 42.9 ], [ 17.3, 43.1 ], [ 16.3, 43.1 ], [ 16.5, 43.3 ], [ 16.0, 43.4 ], [ 15.9, 43.7 ], [ 15.7, 43.7 ], [ 15.7, 43.8 ], [ 15.3, 43.7 ], [ 14.7, 44.2 ], [ 14.8, 44.5 ], [ 14.7, 45.0 ], [ 14.9, 45.2 ], [ 15.5, 45.2 ], [ 16.5, 44.7 ], [ 17.2, 43.9 ], [ 17.4, 43.9 ], [ 17.9, 43.4 ], [ 18.2, 43.4 ], [ 18.6, 43.7 ], [ 18.7, 44.2 ], [ 18.6, 44.8 ], [ 17.7, 45.5 ], [ 17.5, 45.9 ], [ 17.5, 46.6 ], [ 17.2, 46.7 ], [ 16.2, 46.0 ], [ 14.8, 46.0 ], [ 14.7, 45.8 ], [ 13.9, 45.4 ], [ 13.5, 45.4 ], [ 13.7, 45.5 ], [ 13.7, 45.7 ], [ 13.1, 45.8 ], [ 13.1, 45.6 ], [ 12.5, 45.5 ], [ 12.3, 45.3 ], [ 12.3, 45.1 ], [ 12.5, 45.0 ], [ 12.4, 44.8 ], [ 12.2, 44.8 ], [ 12.3, 44.3 ], [ 12.6, 44.0 ], [ 12.9, 44.0 ], [ 13.0, 43.8 ], [ 13.6, 43.6 ], [ 13.7, 43.1 ], [ 14.1, 42.7 ], [ 14.2, 42.3 ], [ 14.9, 41.8 ], [ 15.0, 41.3 ], [ 14.7, 40.9 ], [ 14.0, 40.9 ], [ 13.5, 41.5 ], [ 13.1, 41.3 ], [ 12.6, 41.4 ], [ 12.4, 41.7 ], [ 12.2, 41.7 ], [ 12.2, 41.9 ], [ 11.8, 42.0 ], [ 11.7, 42.3 ], [ 11.5, 42.4 ], [ 11.1, 42.3 ], [ 11.1, 42.6 ], [ 10.5, 42.9 ], [ 10.5, 43.3 ], [ 10.2, 43.6 ], [ 10.2, 44.0 ], [ 9.7, 44.0 ], [ 9.4, 44.3 ], [ 8.6, 44.4 ], [ 8.2, 44.1 ], [ 8.2, 43.9 ], [ 7.2, 43.7 ], [ 7.2, 43.5 ], [ 6.7, 43.4 ], [ 6.7, 43.2 ], [ 6.2, 43.0 ], [ 5.7, 43.0 ], [ 5.7, 43.2 ], [ 5.3, 43.2 ], [ 5.0, 43.4 ], [ 4.5, 43.3 ], [ 4.3, 43.5 ], [ 3.3, 43.3 ], [ 3.0, 42.8 ], [ 3.0, 42.6 ], [ 3.3, 42.4 ], [ 3.3, 42.2 ], [ 3.1, 42.2 ], [ 3.2, 41.8 ], [ 2.3, 41.5 ], [ 2.2, 41.3 ], [ 0.9, 41.0 ], [ 0.9, 40.7 ], [ 0.5, 40.5 ], [ 0.2, 40.2 ], [ 0.2, 40.0 ], [ 0.0, 40.0 ], [ 0.0, 39.8 ], [ -0.2, 39.8 ], [ -0.3, 39.6 ], [ -0.2, 39.0 ], [ 0.1, 38.9 ], [ 0.2, 38.7 ], [ -0.6, 38.2 ], [ -0.6, 38.0 ], [ -0.8, 37.9 ], [ -0.8, 37.5 ], [ -1.1, 37.6 ], [ -1.8, 37.3 ], [ -1.8, 37.0 ], [ -2.1, 36.7 ], [ -2.3, 36.8 ], [ -4.5, 36.7 ], [ -4.5, 36.5 ], [ -5.2, 36.4 ], [ -5.4, 36.0 ], [ -5.8, 36.0 ], [ -6.3, 36.4 ], [ -6.5, 37.0 ], [ -6.9, 37.2 ], [ -7.5, 37.2 ], [ -7.7, 37.0 ], [ -8.2, 37.1 ], [ -9.0, 37.0 ], [ -8.8, 37.4 ], [ -8.8, 38.4 ], [ -8.9, 38.5 ], [ -9.3, 38.4 ], [ -9.2, 38.6 ], [ -9.5, 38.7 ], [ -9.4, 39.4 ], [ -9.1, 39.5 ], [ -8.7, 40.8 ], [ -8.9, 41.7 ], [ -8.8, 42.3 ], [ -9.0, 42.3 ], [ -9.2, 42.7 ], [ -9.2, 43.2 ], [ -9.0, 43.2 ], [ -8.9, 43.4 ], [ -8.8, 43.3 ], [ -8.3, 43.4 ], [ -8.3, 43.6 ], [ -8.0, 43.8 ], [ -7.5, 43.8 ], [ -7.3, 43.6 ], [ -5.8, 43.7 ], [ -4.8, 43.4 ], [ -4.1, 43.5 ], [ -3.4, 43.4 ], [ -2.7, 43.5 ], [ -2.5, 43.3 ], [ -1.6, 43.4 ], [ -1.3, 44.1 ], [ -1.3, 45.0 ], [ -1.1, 45.5 ], [ -1.4, 46.0 ], [ -1.1, 45.9 ], [ -1.1, 46.1 ], [ -1.6, 46.2 ], [ -1.5, 46.4 ], [ -1.8, 46.4 ], [ -1.9, 46.7 ], [ -2.2, 46.8 ], [ -2.2, 47.0 ], [ -2.0, 47.1 ], [ -2.3, 47.1 ], [ -2.2, 47.3 ], [ -2.6, 47.3 ], [ -2.5, 47.5 ], [ -3.2, 47.5 ], [ -3.3, 47.7 ], [ -3.5, 47.6 ], [ -3.5, 47.8 ], [ -3.9, 47.7 ], [ -4.2, 47.8 ], [ -4.0, 48.7 ], [ -3.0, 48.9 ], [ -2.7, 48.5 ], [ -2.5, 48.7 ], [ -1.6, 48.6 ], [ -1.6, 49.2 ], [ -1.8, 49.3 ], [ -2.0, 49.8 ], [ -1.2, 49.7 ], [ -1.2, 49.4 ], [ 0.0, 49.3 ], [ 0.2, 49.8 ], [ 1.5, 50.1 ], [ 1.5, 50.9 ], [ 3.5, 51.4 ], [ 3.4, 51.6 ], [ 4.0, 51.8 ], [ 4.0, 52.0 ], [ 4.2, 52.0 ], [ 4.5, 52.3 ], [ 4.8, 53.3 ], [ 5.0, 53.3 ], [ 4.8, 53.0 ], [ 5.0, 52.9 ], [ 5.4, 53.1 ], [ 5.4, 53.3 ], [ 5.7, 53.3 ], [ 5.6, 53.5 ], [ 6.4, 53.4 ], [ 6.8, 53.6 ], [ 7.0, 53.4 ], [ 7.2, 53.6 ], [ 7.1, 53.8 ], [ 7.6, 53.7 ], [ 8.0, 53.8 ], [ 8.1, 53.6 ], [ 8.5, 53.6 ], [ 8.5, 53.9 ], [ 9.0, 53.8 ], [ 9.0, 54.1 ], [ 8.6, 54.3 ], [ 8.9, 54.5 ], [ 8.8, 54.6 ], [ 8.7, 54.5 ], [ 8.5, 54.5 ], [ 8.5, 54.7 ], [ 8.4, 54.7 ], [ 8.4, 54.8 ], [ 8.2, 54.8 ], [ 8.2, 54.9 ], [ 8.5, 55.1 ], [ 8.3, 55.6 ], [ 8.2, 55.5 ], [ 8.0, 55.6 ] ], [ [ 9.7, 55.7 ], [ 9.9, 55.5 ], [ 10.1, 55.6 ], [ 10.1, 55.7 ], [ 9.7, 55.7 ] ], [ [ 9.9, 55.0 ], [ 10.1, 55.2 ], [ 9.9, 55.3 ], [ 9.6, 55.2 ], [ 9.9, 55.0 ] ], [ [ 16.2, 43.4 ], [ 16.6, 43.5 ], [ 16.2, 43.5 ], [ 16.2, 43.4 ] ], [ [ 14.9, 44.5 ], [ 14.9, 44.2 ], [ 15.1, 44.2 ], [ 15.1, 44.4 ], [ 14.9, 44.5 ] ], [ [ 15.1, 44.2 ], [ 15.2, 44.1 ], [ 15.2, 44.2 ], [ 15.1, 44.2 ] ], [ [ 14.8, 44.6 ], [ 14.9, 44.7 ], [ 14.8, 44.7 ], [ 14.8, 44.6 ] ], [ [ 14.8, 45.0 ], [ 14.9, 44.9 ], [ 14.9, 45.0 ], [ 14.8, 45.0 ] ], [ [ -9.0, 42.5 ], [ -8.9, 42.6 ], [ -9.0, 42.6 ], [ -9.0, 42.5 ] ], [ [ -1.4, 46.2 ], [ -1.2, 46.3 ], [ -1.4, 46.3 ], [ -1.4, 46.2 ] ], [ [ 8.4, 54.9 ], [ 8.5, 54.8 ], [ 8.6, 54.8 ], [ 8.6, 55.0 ], [ 8.4, 54.9 ] ], [ [ 8.6, 54.8 ], [ 8.7, 54.7 ], [ 8.7, 54.8 ], [ 8.6, 54.8 ] ], [ [ 8.5, 55.2 ], [ 8.6, 55.4 ], [ 8.5, 55.4 ], [ 8.5, 55.2 ] ], [ [ 8.6, 55.2 ], [ 8.7, 55.1 ], [ 8.7, 55.2 ], [ 8.6, 55.2 ] ], [ [ 9.1, 56.8 ], [ 9.2, 57.0 ], [ 9.0, 57.0 ], [ 9.0, 56.9 ], [ 9.1, 56.8 ] ], [ [ 9.0, 56.9 ], [ 8.9, 56.8 ], [ 9.0, 56.8 ], [ 9.0, 56.9 ] ], [ [ 9.3, 56.7 ], [ 9.2, 56.6 ], [ 9.3, 56.6 ], [ 9.3, 56.7 ] ], [ [ 8.3, 56.0 ], [ 8.2, 55.9 ], [ 8.3, 55.9 ], [ 8.3, 56.0 ] ], [ [ 9.9, 54.9 ], [ 9.8, 54.8 ], [ 9.9, 54.8 ], [ 9.9, 54.9 ] ], [ [ 14.5, 53.8 ], [ 14.4, 53.7 ], [ 14.5, 53.7 ], [ 14.5, 53.8 ] ], [ [ 8.3, 53.5 ], [ 8.2, 53.4 ], [ 8.3, 53.4 ], [ 8.3, 53.5 ] ], [ [ -0.8, 45.5 ], [ -0.9, 45.4 ], [ -0.8, 45.4 ], [ -0.8, 45.5 ] ], [ [ -1.1, 44.8 ], [ -1.2, 44.7 ], [ -1.1, 44.7 ], [ -1.1, 44.8 ] ], [ [ 17.0, 43.3 ], [ 16.7, 43.2 ], [ 17.0, 43.2 ], [ 17.0, 43.3 ] ], [ [ -8.2, 38.5 ], [ -7.7, 38.3 ], [ -7.6, 38.6 ], [ -7.9, 39.2 ], [ -8.2, 39.3 ], [ -8.2, 38.5 ] ] ], [ [ [ -2.9, 47.3 ], [ -2.8, 47.4 ], [ -2.8, 47.3 ], [ -2.9, 47.3 ] ] ], [ [ [ -3.3, 47.3 ], [ -3.1, 47.4 ], [ -3.1, 47.3 ], [ -3.3, 47.3 ] ] ], [ [ [ -1.9, 48.8 ], [ -1.8, 48.9 ], [ -1.8, 48.8 ], [ -1.9, 48.8 ] ] ], [ [ [ -2.0, 49.1 ], [ -2.3, 49.2 ], [ -2.3, 49.3 ], [ -2.0, 49.3 ], [ -2.0, 49.1 ] ] ], [ [ [ -2.4, 49.5 ], [ -2.3, 49.4 ], [ -2.4, 49.4 ], [ -2.4, 49.5 ] ] ], [ [ [ -2.7, 49.5 ], [ -2.5, 49.4 ], [ -2.7, 49.4 ], [ -2.7, 49.5 ] ] ], [ [ [ -2.3, 49.7 ], [ -2.1, 49.8 ], [ -2.1, 49.7 ], [ -2.3, 49.7 ] ] ], [ [ [ -6.4, 49.9 ], [ -6.2, 50.0 ], [ -6.2, 49.9 ], [ -6.4, 49.9 ] ] ], [ [ [ -4.7, 51.1 ], [ -4.6, 51.2 ], [ -4.6, 51.1 ], [ -4.7, 51.1 ] ] ], [ [ [ -9.6, 53.1 ], [ -9.5, 53.0 ], [ -9.6, 53.0 ], [ -9.6, 53.1 ] ] ], [ [ [ 5.1, 53.4 ], [ 5.3, 53.3 ], [ 5.1, 53.3 ], [ 5.1, 53.4 ] ] ], [ [ [ -9.5, 53.0 ], [ -9.3, 53.2 ], [ -9.7, 53.1 ], [ -9.7, 53.5 ], [ -9.1, 54.3 ], [ -8.7, 54.3 ], [ -8.7, 54.5 ], [ -8.5, 54.4 ], [ -8.5, 54.6 ], [ -8.8, 54.7 ], [ -8.3, 55.2 ], [ -8.0, 55.3 ], [ -7.5, 55.2 ], [ -7.3, 55.5 ], [ -7.2, 55.3 ], [ -6.9, 55.2 ], [ -6.1, 55.3 ], [ -6.0, 55.0 ], [ -5.7, 54.9 ], [ -5.7, 54.7 ], [ -5.5, 54.7 ], [ -5.4, 54.5 ], [ -5.6, 54.2 ], [ -5.8, 54.3 ], [ -5.9, 54.0 ], [ -6.3, 54.0 ], [ -6.0, 53.4 ], [ -6.0, 52.8 ], [ -6.3, 52.5 ], [ -6.3, 52.2 ], [ -7.5, 52.1 ], [ -8.7, 51.5 ], [ -8.9, 51.6 ], [ -9.4, 51.4 ], [ -10.3, 51.7 ], [ -10.4, 52.0 ], [ -10.0, 52.1 ], [ -10.6, 52.0 ], [ -10.6, 52.2 ], [ -10.1, 52.3 ], [ -10.0, 52.6 ], [ -9.5, 52.8 ], [ -9.5, 53.0 ] ], [ [ -10.1, 51.7 ], [ -10.0, 51.8 ], [ -10.1, 51.8 ], [ -10.1, 51.7 ] ], [ [ -10.0, 52.4 ], [ -9.8, 52.3 ], [ -9.8, 52.4 ], [ -10.0, 52.4 ] ], [ [ -9.8, 52.6 ], [ -9.7, 52.5 ], [ -9.7, 52.6 ], [ -9.8, 52.6 ] ], [ [ -7.0, 55.2 ], [ -7.1, 55.1 ], [ -7.0, 55.1 ], [ -7.0, 55.2 ] ], [ [ -8.3, 54.6 ], [ -8.4, 54.5 ], [ -8.3, 54.5 ], [ -8.3, 54.6 ] ], [ [ -9.7, 51.7 ], [ -9.8, 51.6 ], [ -9.7, 51.6 ], [ -9.7, 51.7 ] ] ], [ [ [ 5.3, 53.4 ], [ 5.5, 53.5 ], [ 5.5, 53.4 ], [ 5.3, 53.4 ] ] ], [ [ [ 6.8, 53.6 ], [ 6.9, 53.7 ], [ 6.9, 53.6 ], [ 6.8, 53.6 ] ] ], [ [ [ 8.1, 53.8 ], [ 8.2, 53.7 ], [ 8.1, 53.7 ], [ 8.1, 53.8 ] ] ], [ [ [ -4.8, 54.0 ], [ -4.8, 54.3 ], [ -4.6, 54.4 ], [ -4.3, 54.3 ], [ -4.6, 54.0 ], [ -4.8, 54.0 ] ] ], [ [ [ 8.4, 54.4 ], [ 8.5, 54.5 ], [ 8.5, 54.4 ], [ 8.4, 54.4 ] ] ], [ [ [ -6.5, 57.8 ], [ -5.9, 57.3 ], [ -5.8, 57.9 ], [ -5.4, 57.9 ], [ -5.5, 58.1 ], [ -5.1, 58.4 ], [ -5.1, 58.6 ], [ -3.4, 58.6 ], [ -3.1, 58.7 ], [ -3.4, 58.8 ], [ -3.4, 59.2 ], [ -2.9, 59.2 ], [ -2.8, 58.9 ], [ -3.0, 58.7 ], [ -3.0, 58.4 ], [ -3.4, 58.3 ], [ -3.7, 58.0 ], [ -4.0, 58.0 ], [ -3.9, 57.9 ], [ -4.0, 57.6 ], [ -3.5, 57.8 ], [ -1.8, 57.7 ], [ -1.8, 57.4 ], [ -2.0, 57.3 ], [ -2.2, 56.8 ], [ -2.5, 56.7 ], [ -2.5, 56.5 ], [ -2.8, 56.5 ], [ -2.8, 56.3 ], [ -2.6, 56.2 ], [ -3.0, 56.2 ], [ -3.1, 56.0 ], [ -2.6, 56.1 ], [ -2.0, 55.9 ], [ -1.8, 55.6 ], [ -1.5, 55.5 ], [ -1.6, 55.3 ], [ -1.1, 54.6 ], [ -0.5, 54.5 ], [ -0.3, 54.2 ], [ -0.1, 54.2 ], [ -0.2, 53.9 ], [ 0.2, 53.7 ], [ 0.0, 53.5 ], [ 0.4, 53.3 ], [ 0.3, 53.0 ], [ 0.1, 53.0 ], [ 0.2, 52.8 ], [ 0.4, 52.8 ], [ 0.5, 53.0 ], [ 1.4, 53.0 ], [ 1.5, 52.8 ], [ 1.7, 52.8 ], [ 1.6, 52.0 ], [ 1.0, 51.8 ], [ 0.9, 51.6 ], [ 0.9, 51.4 ], [ 1.5, 51.4 ], [ 1.4, 51.1 ], [ 0.3, 50.7 ], [ -1.1, 50.8 ], [ -1.1, 50.6 ], [ -1.9, 50.7 ], [ -2.0, 50.5 ], [ -3.3, 50.7 ], [ -3.5, 50.6 ], [ -3.6, 50.2 ], [ -4.8, 50.3 ], [ -5.0, 50.2 ], [ -5.0, 50.0 ], [ -5.8, 50.0 ], [ -5.7, 50.2 ], [ -5.4, 50.2 ], [ -5.0, 50.6 ], [ -4.8, 50.6 ], [ -4.6, 51.0 ], [ -4.3, 51.0 ], [ -4.3, 51.2 ], [ -4.1, 51.3 ], [ -3.0, 51.2 ], [ -2.9, 51.5 ], [ -3.6, 51.4 ], [ -3.8, 51.6 ], [ -4.3, 51.5 ], [ -4.3, 51.7 ], [ -5.1, 51.6 ], [ -5.4, 51.9 ], [ -4.1, 52.4 ], [ -4.2, 52.9 ], [ -4.8, 52.8 ], [ -4.4, 53.0 ], [ -4.6, 53.2 ], [ -4.5, 53.5 ], [ -4.3, 53.5 ], [ -4.2, 53.3 ], [ -3.9, 53.4 ], [ -3.2, 53.3 ], [ -3.0, 53.6 ], [ -3.1, 54.0 ], [ -2.9, 54.1 ], [ -3.3, 54.0 ], [ -3.3, 54.2 ], [ -3.6, 54.4 ], [ -3.6, 54.7 ], [ -3.3, 55.0 ], [ -4.3, 54.7 ], [ -4.9, 54.8 ], [ -4.8, 54.6 ], [ -5.0, 54.6 ], [ -5.2, 55.0 ], [ -4.8, 55.3 ], [ -4.7, 55.6 ], [ -5.1, 55.7 ], [ -5.1, 55.4 ], [ -5.3, 55.4 ], [ -5.5, 55.7 ], [ -5.5, 55.3 ], [ -5.8, 55.3 ], [ -5.7, 55.9 ], [ -6.0, 55.8 ], [ -6.0, 55.6 ], [ -6.5, 55.7 ], [ -6.5, 55.9 ], [ -5.8, 56.1 ], [ -5.8, 56.3 ], [ -6.5, 56.3 ], [ -6.3, 56.9 ], [ -6.2, 56.8 ], [ -5.8, 56.9 ], [ -6.1, 57.2 ], [ -6.2, 57.2 ], [ -6.2, 57.1 ], [ -6.3, 57.1 ], [ -6.5, 57.3 ], [ -6.8, 57.3 ], [ -6.8, 57.5 ], [ -6.5, 57.6 ], [ -6.5, 57.8 ] ], [ [ -2.9, 54.1 ], [ -2.8, 54.2 ], [ -2.9, 54.2 ], [ -2.9, 54.1 ] ], [ [ -5.1, 55.7 ], [ -5.2, 55.8 ], [ -5.2, 55.7 ], [ -5.1, 55.7 ] ], [ [ -5.4, 55.7 ], [ -5.3, 55.8 ], [ -5.4, 55.8 ], [ -5.4, 55.7 ] ], [ [ -5.7, 55.8 ], [ -5.6, 55.7 ], [ -5.6, 55.8 ], [ -5.7, 55.8 ] ], [ [ -5.9, 57.0 ], [ -5.8, 57.1 ], [ -5.9, 57.1 ], [ -5.9, 57.0 ] ], [ [ -5.8, 57.1 ], [ -5.7, 57.2 ], [ -5.8, 57.2 ], [ -5.8, 57.1 ] ], [ [ -6.5, 57.6 ], [ -6.4, 57.5 ], [ -6.4, 57.6 ], [ -6.5, 57.6 ] ], [ [ -5.3, 56.7 ], [ -5.4, 56.6 ], [ -5.3, 56.6 ], [ -5.3, 56.7 ] ], [ [ -6.2, 56.5 ], [ -6.3, 56.4 ], [ -6.2, 56.4 ], [ -6.2, 56.5 ] ], [ [ -5.6, 56.5 ], [ -5.5, 56.4 ], [ -5.5, 56.5 ], [ -5.6, 56.5 ] ], [ [ -5.6, 56.4 ], [ -5.7, 56.3 ], [ -5.6, 56.3 ], [ -5.6, 56.4 ] ], [ [ -4.9, 55.9 ], [ -5.0, 55.8 ], [ -4.9, 55.8 ], [ -4.9, 55.9 ] ], [ [ -2.7, 51.6 ], [ -2.8, 51.5 ], [ -2.7, 51.5 ], [ -2.7, 51.6 ] ] ], [ [ [ 8.3, 54.6 ], [ 8.4, 54.7 ], [ 8.4, 54.6 ], [ 8.3, 54.6 ] ] ], [ [ [ -6.3, 56.0 ], [ -6.2, 56.1 ], [ -6.2, 56.0 ], [ -6.3, 56.0 ] ] ], [ [ [ -6.2, 56.1 ], [ -6.1, 56.2 ], [ -6.1, 56.1 ], [ -6.2, 56.1 ] ] ], [ [ [ -7.0, 56.4 ], [ -6.9, 56.5 ], [ -6.9, 56.4 ], [ -7.0, 56.4 ] ] ], [ [ [ -6.8, 56.6 ], [ -6.6, 56.5 ], [ -6.8, 56.5 ], [ -6.8, 56.6 ] ] ], [ [ [ -6.6, 56.7 ], [ -6.5, 56.6 ], [ -6.6, 56.6 ], [ -6.6, 56.7 ] ] ], [ [ [ -6.2, 57.0 ], [ -6.1, 56.9 ], [ -6.2, 56.9 ], [ -6.2, 57.0 ] ] ], [ [ [ -6.4, 56.9 ], [ -6.3, 57.1 ], [ -6.3, 56.9 ], [ -6.4, 56.9 ] ] ], [ [ [ -6.6, 57.0 ], [ -6.5, 57.1 ], [ -6.5, 57.0 ], [ -6.6, 57.0 ] ] ], [ [ [ -6.3, 58.0 ], [ -7.1, 57.6 ], [ -7.3, 57.3 ], [ -7.2, 57.1 ], [ -7.6, 56.8 ], [ -7.6, 57.0 ], [ -7.4, 57.1 ], [ -7.5, 57.7 ], [ -7.3, 57.7 ], [ -7.2, 57.9 ], [ -7.0, 57.8 ], [ -7.2, 58.2 ], [ -6.2, 58.5 ], [ -6.1, 58.2 ], [ -6.3, 58.2 ], [ -6.3, 58.0 ] ] ], [ [ [ -2.8, 59.2 ], [ -2.7, 59.1 ], [ -2.8, 59.1 ], [ -2.8, 59.2 ] ] ], [ [ [ 5.0, 59.3 ], [ 5.1, 59.2 ], [ 5.0, 59.2 ], [ 5.0, 59.3 ] ] ], [ [ [ -2.8, 59.2 ], [ -3.0, 59.3 ], [ -3.0, 59.4 ], [ -2.8, 59.4 ], [ -2.8, 59.2 ] ] ], [ [ [ -1.7, 59.5 ], [ -1.6, 59.6 ], [ -1.6, 59.5 ], [ -1.7, 59.5 ] ] ], [ [ [ -2.1, 60.1 ], [ -2.0, 60.2 ], [ -2.0, 60.1 ], [ -2.1, 60.1 ] ] ], [ [ [ -1.7, 60.3 ], [ -1.8, 60.4 ], [ -1.7, 60.4 ], [ -1.7, 60.3 ] ] ], [ [ [ -1.2, 60.8 ], [ -0.8, 60.9 ], [ -0.8, 60.5 ], [ -1.0, 60.6 ], [ -0.9, 60.4 ], [ -1.1, 60.3 ], [ -1.0, 60.1 ], [ -1.4, 59.9 ], [ -1.4, 60.1 ], [ -1.7, 60.2 ], [ -1.5, 60.3 ], [ -1.6, 60.6 ], [ -1.2, 60.5 ], [ -1.2, 60.8 ] ] ], [ [ [ -0.8, 60.4 ], [ -0.7, 60.5 ], [ -0.7, 60.4 ], [ -0.8, 60.4 ] ] ], [ [ [ 6.0, 62.5 ], [ 6.1, 62.6 ], [ 6.1, 62.5 ], [ 6.0, 62.5 ] ] ], [ [ [ 19.1, -33.3 ], [ 19.6, -33.9 ], [ 19.5, -34.6 ], [ 19.3, -34.6 ], [ 19.3, -34.4 ], [ 18.8, -34.4 ], [ 18.8, -34.1 ], [ 18.5, -34.1 ], [ 18.5, -34.3 ], [ 18.3, -34.2 ], [ 18.5, -33.8 ], [ 18.2, -33.5 ], [ 18.2, -33.3 ], [ 18.5, -33.2 ], [ 19.1, -33.3 ] ] ], [ [ [ 18.7, -31.7 ], [ 18.8, -31.6 ], [ 18.8, -31.7 ], [ 18.7, -31.7 ] ] ], [ [ [ 22.2, -27.4 ], [ 22.4, -27.6 ], [ 22.4, -28.2 ], [ 22.0, -28.7 ], [ 21.4, -29.0 ], [ 20.6, -28.8 ], [ 20.5, -28.3 ], [ 20.7, -28.0 ], [ 21.3, -27.7 ], [ 21.5, -26.9 ], [ 22.0, -26.9 ], [ 22.2, -27.1 ], [ 22.2, -27.4 ] ] ], [ [ [ 16.2, -26.7 ], [ 16.3, -26.6 ], [ 16.3, -26.7 ], [ 16.2, -26.7 ] ] ], [ [ [ 13.8, -17.4 ], [ 13.9, -17.3 ], [ 13.9, -17.4 ], [ 13.8, -17.4 ] ] ], [ [ [ 15.5, 38.1 ], [ 15.1, 37.5 ], [ 15.3, 37.1 ], [ 15.1, 36.6 ], [ 14.7, 36.7 ], [ 14.4, 37.3 ], [ 14.4, 38.0 ], [ 14.7, 38.2 ], [ 15.8, 38.3 ], [ 15.9, 37.9 ], [ 15.5, 38.1 ] ] ], [ [ [ 20.9, 37.6 ], [ 20.6, 37.9 ], [ 21.0, 37.8 ], [ 20.9, 37.6 ] ] ], [ [ [ 20.8, 38.0 ], [ 20.5, 38.1 ], [ 20.5, 38.2 ], [ 20.8, 38.2 ], [ 20.8, 38.0 ] ] ], [ [ [ 14.9, 38.4 ], [ 15.0, 38.5 ], [ 15.0, 38.4 ], [ 14.9, 38.4 ] ] ], [ [ [ 16.9, 41.2 ], [ 18.0, 40.7 ], [ 18.0, 40.4 ], [ 17.3, 40.3 ], [ 17.0, 40.5 ], [ 16.9, 40.3 ], [ 16.7, 40.3 ], [ 16.5, 39.7 ], [ 17.1, 39.5 ], [ 17.2, 39.0 ], [ 16.2, 38.8 ], [ 16.0, 39.1 ], [ 16.0, 39.5 ], [ 15.8, 39.5 ], [ 15.7, 40.0 ], [ 15.2, 40.0 ], [ 15.1, 40.4 ], [ 15.6, 41.0 ], [ 15.9, 41.1 ], [ 16.0, 41.4 ], [ 16.9, 41.2 ] ] ], [ [ [ 9.4, 42.0 ], [ 9.3, 41.3 ], [ 9.5, 41.3 ], [ 9.8, 40.6 ], [ 9.8, 40.4 ], [ 9.6, 40.3 ], [ 9.7, 39.4 ], [ 9.5, 39.2 ], [ 8.9, 39.2 ], [ 8.8, 39.7 ], [ 8.3, 40.5 ], [ 8.3, 40.9 ], [ 8.6, 40.8 ], [ 9.2, 41.3 ], [ 9.0, 41.5 ], [ 8.7, 41.5 ], [ 8.8, 41.7 ], [ 8.6, 41.7 ], [ 8.7, 42.1 ], [ 8.5, 42.1 ], [ 8.5, 42.4 ], [ 9.3, 42.8 ], [ 9.3, 43.0 ], [ 9.5, 43.0 ], [ 9.6, 42.3 ], [ 9.6, 42.1 ], [ 9.4, 42.0 ] ] ], [ [ [ 15.9, 41.9 ], [ 16.1, 42.0 ], [ 16.2, 41.7 ], [ 15.9, 41.6 ], [ 15.9, 41.9 ] ] ], [ [ [ 10.8, 42.3 ], [ 11.0, 42.4 ], [ 11.0, 42.3 ], [ 10.8, 42.3 ] ] ], [ [ [ 10.0, 42.5 ], [ 10.1, 42.6 ], [ 10.1, 42.5 ], [ 10.0, 42.5 ] ] ], [ [ [ 16.8, 42.8 ], [ 17.0, 42.7 ], [ 16.8, 42.7 ], [ 16.8, 42.8 ] ] ], [ [ [ 10.5, 42.7 ], [ 10.1, 42.8 ], [ 10.5, 42.9 ], [ 10.5, 42.7 ] ] ], [ [ [ 16.0, 43.0 ], [ 16.3, 43.1 ], [ 16.3, 43.0 ], [ 16.0, 43.0 ] ] ], [ [ [ 9.8, 43.0 ], [ 9.9, 43.1 ], [ 9.9, 43.0 ], [ 9.8, 43.0 ] ] ], [ [ [ 15.6, 43.6 ], [ 15.7, 43.7 ], [ 15.7, 43.6 ], [ 15.6, 43.6 ] ] ], [ [ [ 17.3, 51.5 ], [ 17.4, 51.6 ], [ 17.4, 51.5 ], [ 17.3, 51.5 ] ] ], [ [ [ 20.3, 53.5 ], [ 20.4, 53.6 ], [ 20.4, 53.5 ], [ 20.3, 53.5 ] ] ], [ [ [ 10.3, 54.8 ], [ 10.5, 54.9 ], [ 10.5, 54.8 ], [ 10.3, 54.8 ] ] ], [ [ [ 12.5, 54.9 ], [ 12.6, 55.0 ], [ 12.6, 54.9 ], [ 12.5, 54.9 ] ] ], [ [ [ 10.6, 54.8 ], [ 10.8, 55.1 ], [ 11.0, 55.2 ], [ 10.8, 54.8 ], [ 10.6, 54.8 ] ] ], [ [ [ 11.1, 55.2 ], [ 11.2, 55.1 ], [ 11.1, 55.1 ], [ 11.1, 55.2 ] ] ], [ [ [ 14.7, 55.3 ], [ 15.2, 55.2 ], [ 15.2, 55.0 ], [ 14.7, 55.0 ], [ 14.7, 55.3 ] ] ], [ [ [ 10.4, 56.0 ], [ 10.8, 56.0 ], [ 10.8, 55.9 ], [ 10.5, 55.8 ], [ 10.4, 56.0 ] ] ], [ [ [ 11.5, 56.7 ], [ 11.7, 56.8 ], [ 11.7, 56.7 ], [ 11.5, 56.7 ] ] ], [ [ [ 10.9, 57.4 ], [ 11.1, 57.2 ], [ 10.9, 57.2 ], [ 10.9, 57.4 ] ] ], [ [ [ 19.0, 57.5 ], [ 18.3, 56.9 ], [ 18.1, 56.9 ], [ 18.1, 57.6 ], [ 18.4, 57.7 ], [ 18.5, 57.9 ], [ 19.3, 58.0 ], [ 19.2, 57.8 ], [ 18.8, 57.7 ], [ 18.8, 57.5 ], [ 19.0, 57.5 ] ] ], [ [ [ 10.5, 57.7 ], [ 10.7, 57.8 ], [ 10.7, 57.7 ], [ 10.5, 57.7 ] ] ], [ [ [ 19.2, 58.3 ], [ 19.3, 58.4 ], [ 19.3, 58.3 ], [ 19.2, 58.3 ] ] ], [ [ [ 11.0, 58.6 ], [ 11.1, 58.5 ], [ 11.0, 58.5 ], [ 11.0, 58.6 ] ] ], [ [ [ 7.3, 60.5 ], [ 7.1, 60.0 ], [ 7.2, 59.7 ], [ 7.5, 59.9 ], [ 7.7, 60.5 ], [ 8.1, 60.9 ], [ 8.7, 60.9 ], [ 9.1, 60.5 ], [ 9.5, 60.5 ], [ 9.6, 60.7 ], [ 10.3, 61.0 ], [ 11.2, 61.7 ], [ 12.1, 61.7 ], [ 12.6, 61.1 ], [ 12.7, 60.4 ], [ 13.3, 60.4 ], [ 13.6, 60.6 ], [ 13.7, 61.3 ], [ 13.9, 61.6 ], [ 14.4, 61.8 ], [ 15.8, 61.6 ], [ 15.9, 62.7 ], [ 16.3, 62.7 ], [ 16.6, 62.3 ], [ 16.9, 62.2 ], [ 17.1, 62.4 ], [ 17.2, 62.9 ], [ 17.6, 63.3 ], [ 18.3, 63.4 ], [ 18.6, 63.2 ], [ 18.6, 63.0 ], [ 18.5, 62.8 ], [ 18.2, 62.8 ], [ 18.0, 62.5 ], [ 17.5, 62.4 ], [ 17.7, 62.2 ], [ 17.5, 62.2 ], [ 17.4, 62.0 ], [ 17.5, 61.5 ], [ 17.2, 61.5 ], [ 17.2, 60.9 ], [ 18.2, 60.4 ], [ 18.5, 60.5 ], [ 19.0, 59.9 ], [ 19.2, 59.9 ], [ 19.3, 59.6 ], [ 19.0, 59.5 ], [ 19.0, 59.2 ], [ 18.8, 59.3 ], [ 18.6, 58.9 ], [ 18.4, 59.0 ], [ 17.9, 58.7 ], [ 17.6, 58.8 ], [ 17.0, 58.6 ], [ 17.0, 58.2 ], [ 16.8, 58.1 ], [ 16.7, 57.7 ], [ 16.8, 57.5 ], [ 16.7, 57.3 ], [ 16.5, 57.3 ], [ 16.6, 57.2 ], [ 16.5, 56.8 ], [ 16.9, 57.1 ], [ 17.0, 57.4 ], [ 17.2, 57.3 ], [ 16.5, 56.2 ], [ 16.4, 56.6 ], [ 16.2, 56.6 ], [ 15.9, 56.0 ], [ 15.7, 56.1 ], [ 14.3, 56.0 ], [ 14.3, 55.4 ], [ 13.5, 55.3 ], [ 12.8, 55.4 ], [ 13.0, 55.7 ], [ 12.7, 56.0 ], [ 12.5, 56.0 ], [ 12.8, 55.6 ], [ 12.2, 55.5 ], [ 12.5, 55.3 ], [ 12.2, 55.2 ], [ 12.3, 54.9 ], [ 12.0, 54.8 ], [ 11.9, 54.5 ], [ 11.0, 54.7 ], [ 11.0, 55.0 ], [ 11.5, 54.9 ], [ 11.7, 55.0 ], [ 11.6, 55.2 ], [ 11.2, 55.2 ], [ 11.2, 55.5 ], [ 10.9, 55.6 ], [ 10.9, 55.8 ], [ 11.1, 55.9 ], [ 11.3, 55.8 ], [ 11.4, 56.0 ], [ 12.0, 56.0 ], [ 12.2, 56.2 ], [ 12.5, 56.1 ], [ 12.5, 56.3 ], [ 12.7, 56.3 ], [ 12.5, 56.5 ], [ 12.9, 56.6 ], [ 12.3, 56.9 ], [ 12.1, 57.3 ], [ 11.9, 57.3 ], [ 11.9, 57.6 ], [ 11.8, 57.5 ], [ 11.6, 57.6 ], [ 11.5, 58.0 ], [ 11.3, 58.1 ], [ 11.4, 58.3 ], [ 11.2, 58.3 ], [ 11.2, 58.6 ], [ 11.0, 58.8 ], [ 11.1, 59.0 ], [ 10.8, 59.0 ], [ 10.9, 59.2 ], [ 10.6, 59.3 ], [ 10.5, 59.0 ], [ 10.3, 59.1 ], [ 10.0, 58.9 ], [ 9.7, 59.0 ], [ 9.6, 58.8 ], [ 9.3, 58.8 ], [ 9.1, 58.5 ], [ 8.1, 58.0 ], [ 6.6, 58.0 ], [ 6.5, 58.3 ], [ 5.6, 58.5 ], [ 5.4, 59.3 ], [ 5.2, 59.1 ], [ 5.2, 59.3 ], [ 5.0, 59.4 ], [ 5.1, 59.5 ], [ 5.0, 59.9 ], [ 5.2, 60.1 ], [ 5.0, 60.1 ], [ 4.7, 61.1 ], [ 4.9, 61.2 ], [ 6.2, 61.1 ], [ 6.5, 61.3 ], [ 6.9, 61.3 ], [ 7.2, 61.1 ], [ 7.3, 60.5 ] ], [ [ 18.2, 58.9 ], [ 18.0, 59.0 ], [ 18.0, 58.9 ], [ 18.2, 58.9 ] ], [ [ 16.5, 56.8 ], [ 16.4, 56.7 ], [ 16.5, 56.7 ], [ 16.5, 56.8 ] ], [ [ 10.6, 59.3 ], [ 10.5, 59.5 ], [ 10.5, 59.3 ], [ 10.6, 59.3 ] ], [ [ 5.5, 59.0 ], [ 5.6, 59.1 ], [ 5.5, 59.1 ], [ 5.5, 59.0 ] ], [ [ 5.2, 60.1 ], [ 5.3, 60.2 ], [ 5.2, 60.2 ], [ 5.2, 60.1 ] ], [ [ 6.5, 61.2 ], [ 6.6, 61.1 ], [ 6.6, 61.2 ], [ 6.5, 61.2 ] ], [ [ 17.2, 61.7 ], [ 17.3, 61.6 ], [ 17.3, 61.7 ], [ 17.2, 61.7 ] ], [ [ 5.3, 61.1 ], [ 5.4, 61.0 ], [ 5.4, 61.1 ], [ 5.3, 61.1 ] ], [ [ 6.0, 60.3 ], [ 6.1, 60.2 ], [ 6.1, 60.3 ], [ 6.0, 60.3 ] ], [ [ 5.5, 60.2 ], [ 5.6, 60.1 ], [ 5.6, 60.2 ], [ 5.5, 60.2 ] ], [ [ 5.7, 59.9 ], [ 5.8, 60.0 ], [ 5.7, 60.0 ], [ 5.7, 59.9 ] ], [ [ 5.7, 59.9 ], [ 5.6, 59.8 ], [ 5.7, 59.8 ], [ 5.7, 59.9 ] ], [ [ 5.6, 59.8 ], [ 5.5, 59.7 ], [ 5.6, 59.7 ], [ 5.6, 59.8 ] ], [ [ 5.2, 59.7 ], [ 5.3, 59.6 ], [ 5.3, 59.7 ], [ 5.2, 59.7 ] ], [ [ 5.6, 59.3 ], [ 5.8, 59.2 ], [ 5.8, 59.3 ], [ 5.6, 59.3 ] ], [ [ 5.8, 59.1 ], [ 5.9, 59.0 ], [ 5.9, 59.1 ], [ 5.8, 59.1 ] ], [ [ 11.7, 55.9 ], [ 11.9, 55.8 ], [ 11.9, 55.9 ], [ 11.7, 55.9 ] ] ], [ [ [ 19.1, 59.4 ], [ 19.2, 59.3 ], [ 19.1, 59.3 ], [ 19.1, 59.4 ] ] ], [ [ [ 19.3, 59.4 ], [ 19.4, 59.5 ], [ 19.4, 59.4 ], [ 19.3, 59.4 ] ] ], [ [ [ 21.4, 59.7 ], [ 21.5, 59.8 ], [ 21.5, 59.7 ], [ 21.4, 59.7 ] ] ], [ [ [ 19.3, 59.7 ], [ 19.4, 59.8 ], [ 19.4, 59.7 ], [ 19.3, 59.7 ] ] ], [ [ [ 19.9, 59.8 ], [ 20.0, 59.9 ], [ 20.0, 59.8 ], [ 19.9, 59.8 ] ] ], [ [ [ 21.2, 59.9 ], [ 20.9, 59.8 ], [ 20.8, 60.0 ], [ 21.4, 60.0 ], [ 21.3, 59.8 ], [ 21.2, 59.9 ] ] ], [ [ [ 20.8, 60.1 ], [ 20.7, 60.0 ], [ 20.7, 60.1 ], [ 20.8, 60.1 ] ] ], [ [ [ 20.2, 60.5 ], [ 20.5, 60.2 ], [ 20.7, 60.2 ], [ 20.6, 59.8 ], [ 20.5, 60.0 ], [ 20.3, 59.8 ], [ 19.7, 60.2 ], [ 19.5, 60.1 ], [ 19.5, 60.4 ], [ 19.7, 60.3 ], [ 19.7, 60.5 ], [ 19.9, 60.4 ], [ 20.2, 60.5 ] ], [ [ 20.2, 60.2 ], [ 20.0, 60.1 ], [ 20.2, 60.1 ], [ 20.2, 60.2 ] ] ], [ [ [ 21.0, 60.2 ], [ 21.1, 60.1 ], [ 21.0, 60.1 ], [ 21.0, 60.2 ] ] ], [ [ [ 10.7, 62.4 ], [ 10.6, 61.9 ], [ 10.2, 61.7 ], [ 9.7, 61.8 ], [ 9.5, 62.0 ], [ 9.5, 62.6 ], [ 9.9, 62.9 ], [ 10.4, 62.8 ], [ 10.7, 62.4 ] ] ], [ [ [ 12.5, 62.6 ], [ 12.3, 62.9 ], [ 12.6, 62.8 ], [ 12.5, 62.6 ] ] ], [ [ [ 14.3, 63.3 ], [ 14.4, 63.4 ], [ 14.4, 63.3 ], [ 14.3, 63.3 ] ] ], [ [ [ 21.0, 63.4 ], [ 21.1, 63.5 ], [ 21.1, 63.4 ], [ 21.0, 63.4 ] ] ], [ [ [ 12.0, 64.0 ], [ 11.9, 63.1 ], [ 11.0, 63.2 ], [ 10.8, 63.5 ], [ 10.8, 64.0 ], [ 11.1, 64.3 ], [ 11.7, 64.3 ], [ 12.0, 64.0 ] ], [ [ 11.0, 64.0 ], [ 11.2, 63.9 ], [ 11.2, 64.0 ], [ 11.0, 64.0 ] ], [ [ 11.0, 63.8 ], [ 11.1, 63.7 ], [ 11.1, 63.8 ], [ 11.0, 63.8 ] ] ], [ [ [ 21.0, 63.8 ], [ 20.9, 63.6 ], [ 20.8, 63.6 ], [ 20.8, 63.8 ], [ 21.0, 63.8 ] ] ], [ [ [ 20.9, 63.9 ], [ 20.3, 63.6 ], [ 20.0, 63.7 ], [ 19.9, 63.5 ], [ 19.6, 63.4 ], [ 19.7, 64.1 ], [ 20.3, 64.5 ], [ 21.2, 64.4 ], [ 21.2, 64.2 ], [ 21.0, 64.2 ], [ 20.9, 63.9 ] ] ], [ [ [ 13.8, 68.2 ], [ 13.9, 68.3 ], [ 13.9, 68.2 ], [ 13.8, 68.2 ] ] ], [ [ [ 22.6, -32.7 ], [ 23.5, -33.4 ], [ 23.7, -34.0 ], [ 23.4, -34.1 ], [ 22.5, -34.0 ], [ 22.1, -34.1 ], [ 21.9, -34.4 ], [ 21.4, -34.5 ], [ 21.2, -34.4 ], [ 20.7, -34.5 ], [ 20.3, -34.1 ], [ 20.3, -33.5 ], [ 20.6, -33.2 ], [ 22.0, -33.1 ], [ 22.3, -32.8 ], [ 22.3, -32.3 ], [ 22.6, -32.3 ], [ 22.6, -32.7 ] ] ], [ [ [ 27.5, -32.5 ], [ 28.1, -32.7 ], [ 28.1, -33.0 ], [ 27.5, -33.2 ], [ 27.3, -33.5 ], [ 26.5, -33.7 ], [ 26.3, -33.9 ], [ 26.2, -33.7 ], [ 25.8, -33.7 ], [ 25.6, -34.0 ], [ 25.0, -34.0 ], [ 24.9, -34.2 ], [ 24.5, -34.2 ], [ 24.5, -33.9 ], [ 24.8, -33.8 ], [ 25.1, -33.2 ], [ 25.5, -32.8 ], [ 25.7, -32.8 ], [ 26.2, -32.2 ], [ 26.9, -32.1 ], [ 27.4, -32.3 ], [ 27.5, -32.5 ] ] ], [ [ [ 27.8, -30.9 ], [ 28.0, -31.0 ], [ 27.8, -31.0 ], [ 27.8, -30.9 ] ] ], [ [ [ 26.1, -29.1 ], [ 26.2, -29.0 ], [ 26.2, -29.1 ], [ 26.1, -29.1 ] ] ], [ [ [ 23.4, -28.2 ], [ 23.6, -28.1 ], [ 23.6, -28.2 ], [ 23.4, -28.2 ] ] ], [ [ [ 25.3, -26.8 ], [ 24.9, -27.2 ], [ 24.5, -27.1 ], [ 24.4, -26.7 ], [ 24.7, -26.0 ], [ 25.3, -26.0 ], [ 25.3, -26.8 ] ] ], [ [ [ 25.2, 35.3 ], [ 25.8, 35.4 ], [ 25.7, 35.1 ], [ 26.3, 35.3 ], [ 26.3, 35.0 ], [ 24.7, 34.9 ], [ 24.7, 35.1 ], [ 24.2, 35.2 ], [ 24.2, 35.4 ], [ 25.2, 35.3 ] ] ], [ [ [ 27.7, 36.2 ], [ 27.5, 36.3 ], [ 27.9, 36.3 ], [ 28.2, 36.5 ], [ 28.1, 36.0 ], [ 27.7, 35.9 ], [ 27.7, 36.2 ] ] ], [ [ [ 22.9, 36.3 ], [ 23.0, 36.4 ], [ 23.0, 36.3 ], [ 22.9, 36.3 ] ] ], [ [ [ 27.4, 36.3 ], [ 27.5, 36.4 ], [ 27.5, 36.3 ], [ 27.4, 36.3 ] ] ], [ [ [ 27.3, 36.5 ], [ 27.4, 36.4 ], [ 27.3, 36.4 ], [ 27.3, 36.5 ] ] ], [ [ [ 27.7, 36.8 ], [ 27.4, 36.6 ], [ 27.4, 36.8 ], [ 27.7, 36.8 ] ] ], [ [ [ 25.1, 36.8 ], [ 25.3, 36.7 ], [ 24.8, 36.6 ], [ 24.8, 36.7 ], [ 25.1, 36.8 ] ] ], [ [ [ 24.3, 36.8 ], [ 24.5, 36.8 ], [ 24.5, 36.6 ], [ 24.3, 36.6 ], [ 24.3, 36.8 ] ] ], [ [ [ 24.6, 36.7 ], [ 24.7, 36.8 ], [ 24.7, 36.7 ], [ 24.6, 36.7 ] ] ], [ [ [ 24.5, 36.9 ], [ 24.6, 36.8 ], [ 24.5, 36.8 ], [ 24.5, 36.9 ] ] ], [ [ [ 24.7, 37.0 ], [ 24.8, 36.9 ], [ 24.7, 36.9 ], [ 24.7, 37.0 ] ] ], [ [ [ 25.0, 37.1 ], [ 25.2, 37.1 ], [ 25.3, 37.2 ], [ 25.3, 37.0 ], [ 24.9, 36.9 ], [ 25.0, 37.1 ] ] ], [ [ [ 24.4, 37.1 ], [ 24.5, 37.2 ], [ 24.5, 37.1 ], [ 24.4, 37.1 ] ] ], [ [ [ 24.4, 37.3 ], [ 24.5, 37.5 ], [ 24.5, 37.3 ], [ 24.4, 37.3 ] ] ], [ [ [ 24.8, 37.5 ], [ 25.0, 37.4 ], [ 24.8, 37.4 ], [ 24.8, 37.5 ] ] ], [ [ [ 26.5, 37.8 ], [ 26.6, 37.7 ], [ 26.5, 37.7 ], [ 26.5, 37.8 ] ] ], [ [ [ 21.4, 39.0 ], [ 22.1, 39.6 ], [ 22.9, 39.7 ], [ 23.0, 39.5 ], [ 23.2, 39.5 ], [ 23.2, 39.3 ], [ 22.8, 39.3 ], [ 23.0, 39.0 ], [ 23.4, 39.1 ], [ 23.6, 38.8 ], [ 23.5, 37.9 ], [ 23.4, 38.0 ], [ 23.1, 37.9 ], [ 23.2, 37.6 ], [ 23.3, 37.8 ], [ 23.5, 37.8 ], [ 23.4, 37.3 ], [ 23.1, 37.2 ], [ 23.0, 37.5 ], [ 22.8, 37.5 ], [ 23.1, 36.9 ], [ 23.0, 36.6 ], [ 23.2, 36.6 ], [ 23.2, 36.4 ], [ 23.0, 36.4 ], [ 22.8, 36.8 ], [ 22.6, 36.8 ], [ 22.4, 36.4 ], [ 22.1, 37.0 ], [ 22.0, 36.8 ], [ 21.7, 36.8 ], [ 21.5, 37.0 ], [ 21.7, 37.4 ], [ 21.3, 37.6 ], [ 21.3, 37.8 ], [ 21.1, 37.8 ], [ 21.1, 38.0 ], [ 21.3, 38.0 ], [ 21.3, 38.3 ], [ 21.1, 38.3 ], [ 21.1, 38.5 ], [ 21.4, 38.8 ], [ 21.4, 39.0 ] ], [ [ 22.8, 37.5 ], [ 22.7, 37.6 ], [ 22.7, 37.5 ], [ 22.8, 37.5 ] ], [ [ 21.3, 38.3 ], [ 21.4, 38.4 ], [ 21.3, 38.4 ], [ 21.3, 38.3 ] ], [ [ 21.4, 38.3 ], [ 21.7, 38.2 ], [ 21.7, 38.3 ], [ 21.4, 38.3 ] ], [ [ 22.7, 38.9 ], [ 22.6, 38.8 ], [ 22.7, 38.8 ], [ 22.7, 38.9 ] ], [ [ 23.1, 38.7 ], [ 23.3, 38.8 ], [ 23.1, 38.8 ], [ 23.1, 38.7 ] ], [ [ 23.3, 38.5 ], [ 23.5, 38.5 ], [ 23.4, 38.7 ], [ 23.3, 38.7 ], [ 23.3, 38.5 ] ], [ [ 22.0, 38.4 ], [ 21.9, 38.3 ], [ 22.0, 38.3 ], [ 22.0, 38.4 ] ], [ [ 22.9, 38.0 ], [ 23.2, 38.2 ], [ 22.7, 38.2 ], [ 22.5, 38.4 ], [ 22.2, 38.3 ], [ 22.9, 38.0 ] ] ], [ [ [ 25.8, 38.3 ], [ 26.0, 38.3 ], [ 25.8, 38.6 ], [ 26.2, 38.6 ], [ 26.3, 38.4 ], [ 26.1, 38.2 ], [ 25.8, 38.3 ] ] ], [ [ [ 25.5, 38.5 ], [ 25.6, 38.6 ], [ 25.6, 38.5 ], [ 25.5, 38.5 ] ] ], [ [ [ 23.4, 39.1 ], [ 23.5, 39.2 ], [ 23.5, 39.1 ], [ 23.4, 39.1 ] ] ], [ [ [ 23.3, 39.1 ], [ 23.0, 39.1 ], [ 23.0, 39.2 ], [ 23.3, 39.3 ], [ 23.3, 39.1 ] ] ], [ [ [ 26.6, 39.0 ], [ 25.8, 39.1 ], [ 25.8, 39.3 ], [ 26.4, 39.4 ], [ 26.6, 39.2 ], [ 26.6, 39.0 ] ] ], [ [ [ 26.8, 38.9 ], [ 26.6, 39.4 ], [ 26.8, 39.5 ], [ 26.1, 39.4 ], [ 26.0, 39.8 ], [ 26.0, 40.0 ], [ 26.2, 40.0 ], [ 26.2, 40.4 ], [ 26.4, 40.5 ], [ 27.1, 40.4 ], [ 27.7, 39.7 ], [ 27.8, 38.9 ], [ 27.6, 38.4 ], [ 27.2, 38.0 ], [ 26.8, 38.0 ], [ 26.8, 38.2 ], [ 26.7, 38.1 ], [ 26.3, 38.2 ], [ 26.4, 38.3 ], [ 26.3, 38.7 ], [ 26.5, 38.7 ], [ 26.7, 38.4 ], [ 26.7, 38.8 ], [ 27.0, 38.8 ], [ 26.8, 38.9 ] ], [ [ 26.8, 38.5 ], [ 26.9, 38.4 ], [ 26.9, 38.5 ], [ 26.8, 38.5 ] ], [ [ 27.1, 38.5 ], [ 27.0, 38.4 ], [ 27.1, 38.4 ], [ 27.1, 38.5 ] ] ], [ [ [ 25.4, 40.0 ], [ 25.4, 39.8 ], [ 25.0, 39.8 ], [ 25.0, 40.0 ], [ 25.4, 40.0 ] ] ], [ [ [ 23.5, 40.0 ], [ 23.7, 39.9 ], [ 23.5, 39.9 ], [ 23.5, 40.0 ] ] ], [ [ [ 24.2, 40.3 ], [ 24.4, 40.3 ], [ 24.4, 40.1 ], [ 24.2, 40.1 ], [ 24.2, 40.3 ] ] ], [ [ [ 26.0, 40.1 ], [ 25.7, 40.1 ], [ 25.7, 40.2 ], [ 26.0, 40.3 ], [ 26.0, 40.1 ] ] ], [ [ [ 25.5, 40.4 ], [ 25.7, 40.5 ], [ 25.7, 40.4 ], [ 25.5, 40.4 ] ] ], [ [ [ 27.7, 42.3 ], [ 27.8, 42.2 ], [ 27.7, 42.2 ], [ 27.7, 42.3 ] ] ], [ [ [ 24.4, 47.1 ], [ 24.0, 46.8 ], [ 23.1, 46.7 ], [ 22.5, 46.8 ], [ 22.5, 47.1 ], [ 23.0, 47.3 ], [ 23.5, 48.0 ], [ 24.2, 48.0 ], [ 24.4, 47.8 ], [ 24.4, 47.1 ] ] ], [ [ [ 22.0, 49.2 ], [ 22.2, 49.2 ], [ 22.2, 49.0 ], [ 22.0, 49.0 ], [ 22.0, 49.2 ] ] ], [ [ [ 24.1, 52.5 ], [ 24.5, 52.0 ], [ 24.5, 51.7 ], [ 24.1, 51.3 ], [ 23.6, 51.4 ], [ 23.2, 51.9 ], [ 23.2, 52.4 ], [ 23.6, 52.6 ], [ 24.1, 52.5 ] ] ], [ [ [ 22.4, 52.6 ], [ 22.7, 52.7 ], [ 22.8, 52.4 ], [ 22.5, 52.4 ], [ 22.4, 52.6 ] ] ], [ [ [ 25.1, 54.4 ], [ 25.2, 54.3 ], [ 25.1, 54.3 ], [ 25.1, 54.4 ] ] ], [ [ [ 23.4, 56.2 ], [ 23.4, 56.0 ], [ 23.7, 55.7 ], [ 23.5, 54.7 ], [ 24.2, 53.8 ], [ 24.1, 53.4 ], [ 23.8, 53.2 ], [ 23.5, 53.3 ], [ 23.1, 53.8 ], [ 23.1, 54.5 ], [ 23.3, 54.7 ], [ 23.3, 55.0 ], [ 22.6, 55.7 ], [ 21.9, 55.9 ], [ 21.8, 56.4 ], [ 22.0, 56.6 ], [ 22.9, 56.6 ], [ 23.4, 56.2 ] ] ], [ [ [ 27.6, 58.9 ], [ 28.3, 58.2 ], [ 28.3, 57.7 ], [ 27.9, 57.2 ], [ 27.1, 57.2 ], [ 26.7, 57.6 ], [ 26.7, 58.4 ], [ 27.0, 58.8 ], [ 27.6, 58.9 ] ] ], [ [ [ 22.7, 58.9 ], [ 22.7, 58.2 ], [ 22.6, 58.1 ], [ 22.3, 58.2 ], [ 22.1, 57.9 ], [ 22.0, 57.9 ], [ 22.1, 58.2 ], [ 21.7, 58.3 ], [ 21.9, 58.5 ], [ 22.5, 58.6 ], [ 22.4, 58.9 ], [ 22.0, 59.0 ], [ 22.9, 59.0 ], [ 22.7, 58.9 ] ] ], [ [ [ 23.1, 59.0 ], [ 23.2, 59.1 ], [ 23.2, 59.0 ], [ 23.1, 59.0 ] ] ], [ [ [ 26.0, 59.6 ], [ 25.0, 59.1 ], [ 23.5, 59.1 ], [ 23.5, 59.3 ], [ 24.3, 59.4 ], [ 24.5, 59.6 ], [ 25.5, 59.5 ], [ 25.7, 59.7 ], [ 26.0, 59.6 ] ] ], [ [ [ 21.6, 60.0 ], [ 21.7, 59.9 ], [ 21.6, 59.8 ], [ 21.6, 60.0 ] ] ], [ [ [ 26.8, 59.9 ], [ 26.9, 60.0 ], [ 26.9, 59.9 ], [ 26.8, 59.9 ] ] ], [ [ [ 26.9, 60.0 ], [ 27.0, 60.1 ], [ 27.0, 60.0 ], [ 26.9, 60.0 ] ] ], [ [ [ 27.2, 60.4 ], [ 27.3, 60.3 ], [ 27.2, 60.3 ], [ 27.2, 60.4 ] ] ], [ [ [ 21.5, 63.4 ], [ 21.8, 63.0 ], [ 22.2, 63.0 ], [ 22.6, 63.3 ], [ 23.2, 63.2 ], [ 23.4, 62.9 ], [ 23.4, 62.4 ], [ 23.2, 62.3 ], [ 23.1, 61.8 ], [ 23.3, 61.7 ], [ 25.1, 61.8 ], [ 25.4, 63.0 ], [ 25.9, 63.2 ], [ 26.3, 62.9 ], [ 26.4, 62.6 ], [ 26.3, 61.8 ], [ 26.5, 61.6 ], [ 27.1, 61.8 ], [ 27.3, 62.2 ], [ 27.3, 62.9 ], [ 27.6, 63.2 ], [ 28.5, 63.1 ], [ 30.0, 63.2 ], [ 30.3, 62.9 ], [ 30.2, 61.4 ], [ 29.9, 60.8 ], [ 29.2, 60.2 ], [ 28.4, 60.3 ], [ 28.3, 60.6 ], [ 27.8, 60.4 ], [ 27.6, 60.5 ], [ 27.5, 60.3 ], [ 27.4, 60.5 ], [ 26.8, 60.3 ], [ 26.1, 60.4 ], [ 26.0, 60.2 ], [ 25.5, 60.3 ], [ 25.5, 60.1 ], [ 25.1, 60.2 ], [ 24.5, 59.9 ], [ 24.3, 60.0 ], [ 23.6, 59.8 ], [ 22.5, 59.9 ], [ 22.5, 59.7 ], [ 21.8, 59.8 ], [ 22.0, 60.1 ], [ 21.5, 60.1 ], [ 21.2, 60.3 ], [ 20.7, 60.2 ], [ 20.8, 60.6 ], [ 21.2, 60.6 ], [ 21.1, 61.0 ], [ 21.4, 61.1 ], [ 21.3, 61.3 ], [ 21.5, 61.5 ], [ 21.5, 61.8 ], [ 21.2, 62.0 ], [ 21.3, 62.4 ], [ 21.0, 62.5 ], [ 21.1, 63.0 ], [ 21.3, 62.9 ], [ 21.1, 63.4 ], [ 21.5, 63.4 ] ], [ [ 26.8, 60.4 ], [ 26.7, 60.5 ], [ 26.7, 60.4 ], [ 26.8, 60.4 ] ], [ [ 21.3, 63.1 ], [ 21.5, 63.2 ], [ 21.3, 63.2 ], [ 21.3, 63.1 ] ], [ [ 21.1, 60.5 ], [ 21.2, 60.4 ], [ 21.2, 60.5 ], [ 21.1, 60.5 ] ], [ [ 21.4, 60.4 ], [ 21.5, 60.3 ], [ 21.5, 60.4 ], [ 21.4, 60.4 ] ], [ [ 21.6, 60.3 ], [ 21.7, 60.2 ], [ 21.7, 60.3 ], [ 21.6, 60.3 ] ], [ [ 22.4, 60.3 ], [ 22.5, 60.2 ], [ 22.5, 60.3 ], [ 22.4, 60.3 ] ], [ [ 22.1, 59.9 ], [ 22.3, 60.1 ], [ 22.1, 60.1 ], [ 22.1, 59.9 ] ] ], [ [ [ 25.5, 64.4 ], [ 25.6, 63.9 ], [ 25.2, 63.9 ], [ 24.9, 64.2 ], [ 24.5, 64.3 ], [ 24.4, 64.7 ], [ 25.0, 64.8 ], [ 25.5, 64.4 ] ] ], [ [ [ 29.1, -32.1 ], [ 28.9, -32.2 ], [ 28.9, -31.9 ], [ 29.1, -31.9 ], [ 29.1, -32.1 ] ] ], [ [ [ 31.1, -22.3 ], [ 31.0, -24.3 ], [ 31.7, -24.5 ], [ 32.2, -25.3 ], [ 32.8, -25.6 ], [ 32.7, -26.2 ], [ 32.9, -26.2 ], [ 33.0, -26.0 ], [ 32.9, -27.1 ], [ 32.7, -27.3 ], [ 32.5, -28.5 ], [ 31.2, -29.5 ], [ 31.1, -29.9 ], [ 30.9, -30.0 ], [ 30.5, -30.8 ], [ 30.2, -31.0 ], [ 30.2, -31.2 ], [ 29.1, -31.2 ], [ 28.7, -30.7 ], [ 28.7, -29.6 ], [ 28.1, -28.9 ], [ 28.1, -28.3 ], [ 28.3, -28.0 ], [ 28.7, -27.8 ], [ 29.5, -27.8 ], [ 29.6, -27.6 ], [ 29.1, -27.3 ], [ 27.6, -27.3 ], [ 26.6, -27.1 ], [ 26.4, -26.9 ], [ 26.4, -26.6 ], [ 26.8, -25.4 ], [ 27.5, -24.8 ], [ 28.6, -24.7 ], [ 29.1, -24.9 ], [ 29.0, -24.6 ], [ 28.0, -24.3 ], [ 27.9, -23.8 ], [ 28.8, -23.5 ], [ 29.8, -22.2 ], [ 30.2, -22.0 ], [ 30.8, -22.0 ], [ 31.1, -22.3 ] ], [ [ 30.5, -27.9 ], [ 30.7, -28.1 ], [ 31.2, -28.0 ], [ 31.5, -27.6 ], [ 31.4, -27.1 ], [ 30.7, -26.8 ], [ 30.4, -27.4 ], [ 30.5, -27.9 ] ] ], [ [ [ 46.7, -22.0 ], [ 46.8, -22.1 ], [ 46.7, -22.1 ], [ 46.7, -22.0 ] ] ], [ [ [ 47.5, -18.9 ], [ 47.6, -19.0 ], [ 47.5, -19.0 ], [ 47.5, -18.9 ] ] ], [ [ [ 34.3, -12.4 ], [ 34.0, -12.7 ], [ 33.5, -12.7 ], [ 33.2, -12.4 ], [ 33.2, -11.8 ], [ 33.5, -11.5 ], [ 34.0, -11.5 ], [ 34.3, -11.8 ], [ 34.3, -12.4 ] ] ], [ [ [ 30.7, -12.4 ], [ 29.9, -12.5 ], [ 29.7, -12.3 ], [ 29.7, -11.6 ], [ 29.9, -11.4 ], [ 30.6, -11.4 ], [ 30.8, -11.6 ], [ 30.7, -12.4 ] ] ], [ [ [ 36.2, -8.2 ], [ 35.4, -8.3 ], [ 35.2, -8.1 ], [ 35.2, -7.4 ], [ 35.4, -7.2 ], [ 36.1, -7.2 ], [ 36.3, -7.4 ], [ 36.2, -8.2 ] ] ], [ [ [ 39.7, 9.4 ], [ 39.5, 9.2 ], [ 38.8, 9.3 ], [ 38.6, 9.5 ], [ 38.6, 10.0 ], [ 38.9, 10.2 ], [ 39.6, 10.1 ], [ 39.8, 9.9 ], [ 39.7, 9.4 ] ] ], [ [ [ 74.0, 19.6 ], [ 74.3, 19.0 ], [ 74.4, 18.0 ], [ 74.2, 17.8 ], [ 73.0, 18.0 ], [ 72.8, 18.6 ], [ 72.9, 18.9 ], [ 72.7, 19.1 ], [ 72.7, 19.9 ], [ 73.3, 20.0 ], [ 74.0, 19.6 ] ] ], [ [ [ 92.1, 21.1 ], [ 92.2, 21.2 ], [ 92.2, 21.1 ], [ 92.1, 21.1 ] ] ], [ [ [ 101.2, 21.9 ], [ 101.3, 22.0 ], [ 101.3, 21.9 ], [ 101.2, 21.9 ] ] ], [ [ [ 90.6, 26.9 ], [ 90.3, 27.2 ], [ 90.7, 27.1 ], [ 90.6, 26.9 ] ] ], [ [ [ 89.2, 27.5 ], [ 89.5, 27.6 ], [ 89.6, 27.3 ], [ 89.3, 27.3 ], [ 89.2, 27.5 ] ] ], [ [ [ 33.6, 27.4 ], [ 33.7, 27.5 ], [ 33.7, 27.4 ], [ 33.6, 27.4 ] ] ], [ [ [ 86.0, 27.5 ], [ 85.6, 27.1 ], [ 85.2, 27.1 ], [ 84.8, 27.5 ], [ 84.8, 27.9 ], [ 85.2, 28.3 ], [ 85.6, 28.3 ], [ 85.9, 28.1 ], [ 86.0, 27.5 ] ] ], [ [ [ 80.1, 30.1 ], [ 80.3, 29.2 ], [ 80.2, 28.9 ], [ 80.0, 28.8 ], [ 79.9, 28.5 ], [ 79.5, 28.3 ], [ 79.0, 28.3 ], [ 78.4, 28.7 ], [ 78.2, 28.7 ], [ 78.1, 28.3 ], [ 77.6, 27.9 ], [ 77.0, 27.9 ], [ 76.6, 28.3 ], [ 76.6, 29.0 ], [ 77.2, 29.4 ], [ 78.0, 29.4 ], [ 78.0, 30.0 ], [ 78.2, 30.2 ], [ 79.7, 30.3 ], [ 80.1, 30.1 ] ] ], [ [ [ 36.6, 34.2 ], [ 36.8, 33.5 ], [ 36.8, 32.5 ], [ 36.1, 30.7 ], [ 35.3, 29.9 ], [ 35.0, 29.8 ], [ 34.3, 29.9 ], [ 33.7, 30.7 ], [ 33.7, 31.2 ], [ 34.2, 31.3 ], [ 34.7, 31.9 ], [ 35.2, 33.5 ], [ 35.6, 33.9 ], [ 35.6, 34.3 ], [ 36.0, 34.5 ], [ 36.0, 34.7 ], [ 36.2, 34.7 ], [ 36.6, 34.2 ] ] ], [ [ [ 77.1, 32.4 ], [ 77.2, 32.3 ], [ 77.1, 32.3 ], [ 77.1, 32.4 ] ] ], [ [ [ 104.2, 33.0 ], [ 104.3, 33.1 ], [ 104.3, 33.0 ], [ 104.2, 33.0 ] ] ], [ [ [ 35.9, 34.7 ], [ 36.0, 34.8 ], [ 36.0, 34.7 ], [ 35.9, 34.7 ] ] ], [ [ [ 33.8, 35.3 ], [ 33.9, 34.9 ], [ 33.7, 35.0 ], [ 33.7, 34.8 ], [ 33.0, 34.7 ], [ 33.0, 34.5 ], [ 32.9, 34.7 ], [ 32.8, 34.6 ], [ 32.4, 34.7 ], [ 32.2, 35.0 ], [ 32.5, 35.2 ], [ 32.9, 35.2 ], [ 32.9, 35.4 ], [ 33.4, 35.3 ], [ 33.6, 35.4 ], [ 33.8, 35.3 ] ] ], [ [ [ 51.4, 35.9 ], [ 51.5, 35.8 ], [ 51.4, 35.8 ], [ 51.4, 35.9 ] ] ], [ [ [ 32.3, 36.2 ], [ 32.1, 36.5 ], [ 31.6, 36.6 ], [ 31.5, 36.8 ], [ 31.8, 37.0 ], [ 32.5, 37.0 ], [ 32.7, 36.8 ], [ 32.7, 36.1 ], [ 32.3, 36.2 ] ] ], [ [ [ 30.9, 37.4 ], [ 31.3, 36.8 ], [ 30.6, 36.8 ], [ 30.5, 36.2 ], [ 30.4, 36.3 ], [ 29.9, 36.2 ], [ 29.7, 36.4 ], [ 29.7, 37.0 ], [ 30.2, 37.5 ], [ 30.9, 37.4 ] ] ], [ [ [ 29.0, 36.6 ], [ 28.3, 36.8 ], [ 28.2, 36.6 ], [ 27.9, 36.7 ], [ 27.8, 36.5 ], [ 27.8, 36.8 ], [ 28.0, 36.8 ], [ 28.0, 37.0 ], [ 27.8, 37.1 ], [ 28.6, 37.4 ], [ 29.0, 37.1 ], [ 29.0, 36.6 ] ] ], [ [ [ 36.2, 37.0 ], [ 36.3, 37.1 ], [ 36.3, 37.0 ], [ 36.2, 37.0 ] ] ], [ [ [ 126.8, 37.6 ], [ 126.9, 37.5 ], [ 126.8, 37.5 ], [ 126.8, 37.6 ] ] ], [ [ [ 138.4, 38.3 ], [ 138.5, 38.2 ], [ 138.4, 38.2 ], [ 138.4, 38.3 ] ] ], [ [ [ 35.4, 38.1 ], [ 34.6, 38.0 ], [ 34.4, 38.2 ], [ 34.4, 38.9 ], [ 34.6, 39.1 ], [ 35.3, 39.1 ], [ 35.5, 38.9 ], [ 35.4, 38.1 ] ] ], [ [ [ 45.8, 40.5 ], [ 46.4, 40.0 ], [ 46.4, 39.4 ], [ 46.1, 39.1 ], [ 45.4, 39.1 ], [ 44.7, 39.7 ], [ 44.5, 40.1 ], [ 44.1, 40.3 ], [ 44.1, 40.6 ], [ 45.8, 40.5 ] ] ], [ [ [ 69.8, 40.2 ], [ 69.9, 40.3 ], [ 69.9, 40.2 ], [ 69.8, 40.2 ] ] ], [ [ [ 44.6, 42.6 ], [ 44.7, 42.7 ], [ 44.7, 42.6 ], [ 44.6, 42.6 ] ] ], [ [ [ 28.1, 43.3 ], [ 28.0, 44.0 ], [ 28.6, 44.3 ], [ 28.6, 43.4 ], [ 28.1, 43.3 ] ] ], [ [ [ 38.7, 44.4 ], [ 38.3, 44.3 ], [ 37.9, 44.7 ], [ 37.7, 44.6 ], [ 37.6, 44.9 ], [ 37.9, 45.4 ], [ 38.6, 45.4 ], [ 38.8, 45.2 ], [ 38.7, 44.4 ] ] ], [ [ [ 36.4, 45.3 ], [ 36.5, 45.4 ], [ 36.5, 45.3 ], [ 36.4, 45.3 ] ] ], [ [ [ 29.7, 45.6 ], [ 29.6, 44.8 ], [ 29.1, 44.8 ], [ 29.0, 45.6 ], [ 29.3, 45.9 ], [ 29.8, 45.9 ], [ 29.9, 45.6 ], [ 29.7, 45.6 ] ] ], [ [ [ 33.3, 46.8 ], [ 33.4, 46.7 ], [ 33.3, 46.7 ], [ 33.3, 46.8 ] ] ], [ [ [ 44.4, 48.6 ], [ 44.5, 48.7 ], [ 44.5, 48.6 ], [ 44.4, 48.6 ] ] ], [ [ [ 36.0, 49.6 ], [ 36.3, 48.6 ], [ 36.0, 48.3 ], [ 35.7, 48.3 ], [ 35.3, 48.6 ], [ 35.0, 49.2 ], [ 34.5, 49.4 ], [ 34.5, 49.7 ], [ 36.0, 49.6 ] ] ], [ [ [ 37.5, 49.3 ], [ 37.6, 49.4 ], [ 37.6, 49.3 ], [ 37.5, 49.3 ] ] ], [ [ [ 56.7, 51.3 ], [ 56.8, 51.2 ], [ 56.7, 51.2 ], [ 56.7, 51.3 ] ] ], [ [ [ 44.5, 53.5 ], [ 44.6, 53.4 ], [ 44.5, 53.4 ], [ 44.5, 53.5 ] ] ], [ [ [ 43.3, 54.7 ], [ 43.4, 54.8 ], [ 43.4, 54.7 ], [ 43.3, 54.7 ] ] ], [ [ [ 51.6, 55.2 ], [ 51.7, 55.3 ], [ 51.7, 55.2 ], [ 51.6, 55.2 ] ] ], [ [ [ 36.7, 55.6 ], [ 36.8, 55.7 ], [ 36.8, 55.6 ], [ 36.7, 55.6 ] ] ], [ [ [ 37.2, 58.6 ], [ 37.3, 58.5 ], [ 37.2, 58.5 ], [ 37.2, 58.6 ] ] ], [ [ [ 28.0, 59.8 ], [ 28.1, 59.7 ], [ 28.0, 59.7 ], [ 28.0, 59.8 ] ] ] ] } }
]
}
